Name,Address,City,State,Zip,County,phone_number,Latitude,Longitude
ADAMS COUNTY LIBRARY SYSTEM,140 Baltimore St,Gettysburg,PA,17325-2373,Adams,(717) 334-0163,39.828866,-77.230721
EAST BERLIN COMMUNITY LIBRARY,105 LOCUST STREET,EAST BERLIN,PA,17316-0514,Adams,(717) 259-9000,39.93665,-76.97996
FAIRFIELD AREA LIBRARY,31 WORTZ DR.,FAIRFIELD,PA,17320-0712,Adams,(717) 642-6009,39.787539,-77.366989
HARBAUGH THOMAS LIBRARY,59 W. YORK ST,BIGLERVILLE,PA,17307-0277,Adams,(717) 677-6257,39.93037,-77.249339
LITTLESTOWN AREA LIBRARY,232 N. QUEEN STREET,LITTLESTOWN,PA,17340-1220,Adams,(717) 359-0446,39.74465,-77.088358
NEW OXFORD AREA LIBRARY,124 N PETER ST,NEW OXFORD,PA,17350-0115,Adams,(717) 624-2182,39.861657,-77.053143
ALLEGHENY COUNTY LIBRARY ASSOC,"22 WABASH STREET, SUITE 202",PITTSBURGH,PA,15220-5436,Allegheny,412.921.1123,40.44070892,-80.03490686
ALLEGHENY LIBRARY,1230 Federal St,PITTSBURGH,PA,15212-5362,Allegheny,(412) 237-1890,40.45642856,-80.00674694
ANDREW BAYNE MEM LIBRARY,34 NORTH BALPH AVE,BELLEVUE,PA,15202-3297,Allegheny,(412) 766-7447,40.4963,-80.05531
ANDREW CARNEGIE FREE LIBRARY,300 BEECHWOOD AVE,CARNEGIE,PA,15106-2699,Allegheny,(412) 276-3456,40.40746,-80.08457
AVALON PUBLIC LIBRARY,317 SOUTH HOME AVE.,AVALON,PA,15202-2805,Allegheny,(412) 761-2288,40.501149,-80.067638
BALDWIN BOROUGH PUBLIC LIBRARY,WALLACE BUILDING,PITTSBURGH,PA,15227-3652,Allegheny,(412) 885-2255,40.3752,-79.9715
BEECHVIEW LIBRARY,1910 BROADWAY AVE,PITTSBURGH,PA,15216-3130,Allegheny,(412) 563-2900,40.406742,-80.027462
BETHEL PARK PUBLIC LIBRARY,5100 WEST LIBRARY AVE,BETHEL PARK,PA,15102-2790,Allegheny,(412) 835-2207,40.33386,-80.03087
BRADDOCK CARNEGIE LIBRARY,419 LIBRARY STREET,BRADDOCK,PA,15104-1609,Allegheny,(412) 351-5357,40.40124,-79.86552
BRENTWOOD LIBRARY,3501 BROWNSVILLE RD,PITTSBURGH,PA,15227-3115,Allegheny,(412) 882-5694,40.37446,-79.97552
BRIDGEVILLE PUBLIC LIBRARY,441 STATION ST,BRIDGEVILLE,PA,15017-2011,Allegheny,(412) 221-3737,40.357776,-80.11146
BROOKLINE LIBRARY,708 BROOKLINE BLVD,PITTSBURGH,PA,15226-2102,Allegheny,(412) 561-1003,40.390969,-80.000274
C C MELLOR MEMORIAL LIBRARY,1 PENNWOOD AVE,PITTSBURGH,PA,15218-1627,Allegheny,(412) 731-0909,40.4242,-79.8898
CARNEGIE FR LIB OF SWISSVALE,1800 MONONGAHELA AVE,SWISSVALE,PA,15218-2312,Allegheny,(412) 731-2300,40.42286,-79.89097
CARNEGIE LIB OF MCKEESPORT,1507 LIBRARY AVENUE,MCKEESPORT,PA,15132-4796,Allegheny,(412) 672-0625,40.34495,-79.85607
CARNEGIE LIB OF PITTSBURGH,4400 FORBES AVENUE,PITTSBURGH,PA,15213-4080,Allegheny,(412) 622-3114,40.44435,-79.94935
CARNEGIE LIBRARY OF HOMESTEAD,510 EAST 10TH AVE,MUNHALL,PA,15120-1910,Allegheny,(412) 462-3444,40.40726,-79.90335
CARNEGIE LIBRARY OF PITTSBURGH,4400 Forbes Ave,Pittsburgh,PA,15213-4080,Allegheny,(412) 622-1912,40.442728,-79.950787
CARRICK LIBRARY,1811 BROWNSVILLE RD,PITTSBURGH,PA,15210-3906,Allegheny,(412) 882-3897,40.396695,-79.987591
CLAIRTON PUBLIC LIBRARY,616 MILLER AVE,CLAIRTON,PA,15025-1429,Allegheny,(412) 233-7966,40.292015,-79.883455
COMM LIB OF ALLEGHENY VALLEY,1522 BROADVIEW BLVD.,NATRONA HEIGHTS,PA,15065-2010,Allegheny,(724) 226-3491,40.61975,-79.72973
COMM LIBRARY OF CASTLE SHANNON,3677 MYRTLE AVE,CASTLE SHANNON,PA,15234-2198,Allegheny,(412) 563-4552,40.36762,-80.02233
COMMUNITY LIBRARY OF ALLEGHENY VALLEY-TARENTU,315 EAST 6TH AVENUE,TARENTUM,PA,15084-1596,Allegheny,(724) 226-0770,40.602614,-79.754266
COOPER-SIEGEL COMMUNITY LIBRARY,1220 POWERS RUN ROAD,PITTSBURGH,PA,15238-2618,Allegheny,(412) 828-9520,40.51174,-79.85757
CORAOPOLIS MEMORIAL LIBRARY,601 SCHOOL ST,CORAOPOLIS,PA,15108-1196,Allegheny,(412) 264-3502,40.51586,-80.16188
CRAFTON PUBLIC LIBRARY,140 BRADFORD AVE,PITTSBURGH,PA,15205-3050,Allegheny,(412) 922-6877,40.434325,-80.066743
DORMONT PUBLIC LIBRARY,2950 WEST LIBERTY AVE,PITTSBURGH,PA,15216-2594,Allegheny,(412) 531-8754,40.39406,-80.03537
DOWNTOWN AND BUSINESS LIBRARY,612 SMITHFIELD ST,PITTSBURGH,PA,15222-1818,Allegheny,(412) 281-5945,40.442044,-79.99735
DUQUESNE BRANCH,300 KENNEDY AVE,DUQUESNE,PA,15110,Allegheny,(412) 469-9143,40.371569,-79.84727
EAST LIBERTY LIBRARY,130SOUTH WHITFIELD ST,PITTSBURGH,PA,15206-3408,Allegheny,(412) 363-8232,40.461901,-79.926157
EASTBRIDGE BRANCH WILKINSBURG PUBLIC LIBRARY,1900 GRAHAM BLVD REAR,WILKINSBURG,PA,15235-2758,Allegheny,(412) 342-0056,40.4601,-79.8243
F.O.R. STO-ROX LIBRARY,420 CHARTIERS AVE,MCKEES ROCKS,PA,15136-3804,Allegheny,(412) 771-1222,40.46496203,-80.05844505
FOREST HILLS BRANCH,444 AVENUE D,PITTSBURGH,PA,15221-4214,Allegheny,(412) 824-3567,40.4338,-79.8642
GLENSHAW PUBLIC LIBRARY,1504 Butler Plank Road,Glenshaw,PA,15116,Allegheny,(412) 487-2121,40.529691,-79.955025
GREEN TREE PUBLIC LIBRARY,10 W MANILLA AVE,PITTSBURGH,PA,15220-3310,Allegheny,(412) 921-9292,40.418219,-80.046726
HAMPTON COMMUNITY LIBRARY,4960 ROUTE 8,ALLISON PARK,PA,15101-2354,Allegheny,(724) 444-0040,40.5779,-79.9517
HAZELWOOD LIBRARY,4748 MONONGAHELA ST,PITTSBURGH,PA,15207-3408,Allegheny,(412) 421-2517,40.412232,-79.94283
HILL DISTRICT LIBRARY,419 DINWIDDIE ST,PITTSBURGH,PA,15219-3367,Allegheny,(412) 281-3753,40.442808,-79.980256
HOMEWOOD LIBRARY,7101 HAMILTON AVE,PITTSBURGH,PA,15208-1052,Allegheny,(412) 731-3080,40.455468,-79.899672
JEFFERSON HILLS PUBLIC LIBRARY,925 OLD CLAIRTON RD,JEFFERSON HILLS,PA,15025-3158,Allegheny,(412) 655-7741,40.30115,-79.93956
KNOXVILLE BRANCH LIBRARY,400 BROWNSVILLE RD,PITTSBURGH,PA,15210-2251,Allegheny,(412) 381-6543,40.413369,-79.988674
LAWRENCEVILLE LIBRARY,279 FISK ST,PITTSBURGH,PA,15201-2898,Allegheny,(412) 682-3668,40.467242,-79.958996
LIBRARY FOR THE BLIND & PHYSICALLY HANDICAPPED,4724 BAUM BLVD,PITTSBURGH,PA,15213-1389,Allegheny,(412) 687-2440,40.454241,-79.949033
LINCOLN PARK SATELLITE LIBRARY,7300 RIDGEVIEW AVE,PITTSBURGH,PA,15235,Allegheny,(412) 362-7729,40.467673,-79.884593
MILLVALE LIBRARY,213 Grant Avenue,Millvale,PA,15209,Allegheny,(412) 822-7081,40.4788454,-79.971604
MONROEVILLE PUBLIC LIBRARY,4000 GATEWAY CAMPUS BLVD,MONROEVILLE,PA,15146-3375,Allegheny,(412) 372-0500,40.430068,-79.751068
MOON TOWNSHIP PUBLIC LIBRARY,1700 BEAVER GRADE RD,MOON TOWNSHIP,PA,15108-3109,Allegheny,(412) 269-0334,40.500291,-80.20394
MOUNT WASHINGTON LIBRARY,315 GRANDVIEW AVE,PITTSBURGH,PA,15211-1549,Allegheny,(412) 381-3380,40.434012,-80.009946
MT. LEBANON PUBLIC LIBRARY,16 CASTLE SHANNON BLVD,PITTSBURGH,PA,15228-2252,Allegheny,(412) 531-1912,40.37691,-80.04547
N VERSAILLES PUBLIC LIBRARY,1401 GREENSBURG AVE,NORTH VERSAILLES,PA,15137-1630,Allegheny,(412) 823-2222,40.395469,-79.820769
NORTHERN TIER REGIONAL LIBRARY,4015 DICKEY RD,GIBSONIA,PA,15044-9713,Allegheny,(724) 449-2665,40.64224,-79.94922
NORTHLAND PUBLIC LIBRARY AUTHORITY,300 CUMBERLAND RD,PITTSBURGH,PA,15237-5455,Allegheny,(412) 366-8100,40.57206,-80.03198
OAKMONT CARNEGIE LIBRARY,700 ALLEGHENY RIVER BLVD,OAKMONT,PA,15139-1596,Allegheny,(412) 828-9532,40.52146,-79.84207
PENN HILLS LIBRARY,240 ASTER ST,PITTSBURGH,PA,15235-2059,Allegheny,(412) 798-3507,40.481888,-79.814417
PLEASANT HILLS PUBLIC LIBRARY,302 OLD CLAIRTON RD,PITTSBURGH,PA,15236-4399,Allegheny,(412) 655-2424,40.33368,-79.96139
PLUM BOROUGH LIBRARY,445 CENTER-NEW TEXAS ROAD,PITTSBURGH,PA,15239-1853,Allegheny,(412) 798-7323,40.4859,-79.7372
ROBINSON TOWNSHIP LIBRARY,1000 CHURCH HILL ROAD,PITTSBURGH,PA,15009-9000,Allegheny,(412) 787-3906,40.440001,-80.145782
SCOTT TOWNSHIP LIBRARY,301 LINDSAY ROAD,CARNEGIE,PA,15106-4206,Allegheny,(412) 429-5380,40.10151,-79.58904
SEWICKLEY PUBLIC LIBRARY,500 THORN ST,SEWICKLEY,PA,15143-1533,Allegheny,(412) 741-6920,40.539267,-80.18148
SHALER NORTH HILLS LIBRARY,1822 MOUNT ROYAL BLVD,GLENSHAW,PA,15116-2117,Allegheny,(412) 486-0211,40.527174,-79.964102
SHARPSBURG BRANCH LIBRARY,200 LINDEN AVE,PITTSBURGH,PA,15215-2754,Allegheny,(412) 781-0783,40.495068,-79.931973
SHERADEN LIBRARY,720 SHERWOOD AVE,PITTSBURGH,PA,15204-1724,Allegheny,(412) 331-1135,40.455008,-80.055756
SOUTH FAYETTE TWP LIBRARY,515 MILLERS RUN RD,MORGAN,PA,15064-9722,Allegheny,(412) 257-8660,40.35426,-80.13857
SOUTH PARK TOWNSHIP LIBRARY,2575 BROWNSVILLE RD,LIBRARY,PA,15129-8527,Allegheny,(412) 833-5585,40.288752,-80.006382
SOUTH SIDE LIBRARY,2205 East CARSON ST,PITTSBURGH,PA,15203-2107,Allegheny,(412) 431-0505,40.428569,-79.974003
SPRINGDALE FREE PUBLIC LIBRARY,331 SCHOOL ST,SPRINGDALE,PA,15144-1343,Allegheny,(724) 274-9729,40.54191,-79.77813
SQUIRREL HILL LIBRARY,5801 FORBES AVE,PITTSBURGH,PA,15217-1601,Allegheny,(412) 422-9650,40.438068,-79.922773
UPPER ST CLAIR TWNSHP LIBRARY,1820 MCLAUGHLIN RUN RD,UPPER ST CLAIR,PA,15241-2397,Allegheny,(412) 835-5540,40.33271,-80.07023
WEST DEER LIBRARY,Saxonburg Blvd,Curtisville,PA,15032-0027,Allegheny,(724) 443-5655,40.64544273,-77.60785051
WEST END LIBRARY,47 WABASH AVE,PITTSBURGH,PA,15220-5493,Allegheny,(412) 921-1717,40.440184,-80.034383
WESTERN ALLEGHENY COMM LIBRARY,8042 STEUBENVILLE PIKE,OAKDALE,PA,15071-9357,Allegheny,(724) 695-8150,40.439321,-80.247727
WHITE OAK BRANCH,160 VICTORIA DR,WHITE OAK,PA,15131,Allegheny,(412) 678-2002,40.356489,-79.813516
WHITEHALL PUBLIC LIBRARY,100 BOROUGH PARK DR,PITTSBURGH,PA,15236-2098,Allegheny,(412) 882-6622,40.35036,-79.97847
WILKINSBURG PUBLIC LIBRARY,605 ROSS AVE,WILKINSBURG,PA,15221-2195,Allegheny,(412) 244-2940,40.44335,-79.88612
WOODS RUN LIBRARY,1201 WOODS RUN AVE,PITTSBURGH,PA,15212-2335,Allegheny,(412) 761-3730,40.476668,-80.030076
FORD CITY PUBLIC LIBRARY,1136 FOURTH AVE,FORD CITY,PA,16226-1202,Armstrong,(724) 763-3591,40.77366,-79.52883
KITTANNING FREE LIBRARY,280 N JEFFERSON ST,KITTANNING,PA,16201-1368,Armstrong,(724) 543-1383,40.816622,-79.522467
LEECHBURG PUBLIC LIBRARY,215 First St.,Leechburg,PA,15656,Armstrong,(724) 845-1911,40.6282048,-79.6039255
W W F COMMUNITY LIBRARY,214 EAST MAIN ST,WORTHINGTON,PA,16262-0085,Armstrong,(724) 297-3762,40.83685,-79.62722
B F JONES MEMORIAL LIBRARY,663 Franklin Ave,Aliquippa,PA,15001-3736,Beaver,(724) 375-2900,40.61349635,-80.25122166
BADEN MEMORIAL LIBRARY,385 STATE ST,BADEN,PA,15005-1946,Beaver,(724) 869-3960,40.63477,-80.22814
BEAVER AREA MEMORIAL LIBRARY,100 COLLEGE AVE,BEAVER,PA,15009-2794,Beaver,(724) 775-1132,40.69126,-80.30178
CARNEGIE FREE LIB-BVR FALLS,1301 7TH AVE,BEAVER FALLS,PA,15010-4219,Beaver,(724) 846-4340,40.75366,-80.31928
CARNEGIE FREE LIBRARY-MIDLAND,61 NINTH ST,MIDLAND,PA,15059-1591,Beaver,(724) 643-8980,40.636252,-80.450839
CENTER EXPRESS LIBRARY,109 Pleasant Drive,Aliquippa,PA,15001,Beaver,,40.6338114,-80.31599
CHIPPEWA BRANCH LIBRARY,2811 DARLINGTON RD,BEAVER FALLS,PA,15010,Beaver,(724) 847-1450,40.75079,-80.33602
LAUGHLIN MEMORIAL FREE LIBRARY,99 ELEVENTH ST,AMBRIDGE,PA,15003-2305,Beaver,(724) 266-3857,40.59266,-80.23251
MONACA PUBLIC LIBRARY,609 PENNSYLVANIA AVENUE,MONACA,PA,15061-1805,Beaver,(724) 775-9608,40.69078,-80.28373
NEW BRIGHTON PUBLIC LIBRARY,1021 3RD AVE,NEW BRIGHTON,PA,15066-3011,Beaver,(724) 846-7991,40.73286,-80.3121
ROCHESTER PUBLIC LIBRARY,252 ADAMS ST,ROCHESTER,PA,15074-2179,Beaver,(724) 774-7783,40.70158,-80.28343
BEDFORD CO FED LIB SYSTEM (BOOKMOBILE),240 SOUTH WOOD STREET,BEDFORD,PA,15522-1453,Bedford,(814) 623-5010,40.016956,-78.495686
BEDFORD COUNTY LIBRARY,240 S WOOD ST,BEDFORD,PA,15522-1453,Bedford,(814) 623-5010,40.0168549,-78.4958584
EVERETT FREE LIBRARY,137 EAST MAIN ST,EVERETT,PA,15537-1259,Bedford,(814) 652-5922,40.01202,-78.37109
HYNDMAN-LONDONDERRY PUB LIB,161 CLARENCE STREET,HYNDMAN,PA,15545-0733,Bedford,(814) 842-3782,39.8205732,-78.7212217
SAXTON COMMUNITY LIBRARY,315 FRONT ST,SAXTON,PA,16678-8612,Bedford,(814) 635-3533,40.220061,-78.236841
BERKS CO PUBLIC LIBRARIES,"1040 Berks Rd, P O Box 689",Leesport,PA,19533-0689,Berks,(610) 378-5260,40.3793216,-76.0195109
Berks County Public Libraries,1037 MACARTHUR ROAD,READING,PA,19605-9402,Berks,(610) 378-5260,40.38011013,-75.97625256
BERNVILLE AREA COMMUNITY LIB,6721 BERNVILLE RD.,BERNVILLE,PA,19506-0580,Berks,(610) 488-1302,40.43919,-76.11926
BETHEL TULPEHOCKEN PUB LIB,8601 LANCASTER AVE,BETHEL,PA,19507-9501,Berks,(717) 933-4060,40.480324,-76.296235
BOONE AREA LIBRARY,129 N. MILL ST.,BIRDSBORO,PA,19508-2340,Berks,(610) 582-5666,40.2641,-75.80642
BOYERTOWN COMMUNITY LIBRARY,24 N READING AVE,BOYERTOWN,PA,19512-1124,Berks,(610) 369-0496,40.327877,-75.626444
BRANDYWINE COMMUNITY LIBRARY,60 TOWER DRIVE,TOPTON,PA,19562-1301,Berks,(610) 682-7115,40.49627,-75.69731
EXETER COMMUNITY LIBRARY,4565 PRESTWICK DRIVE,READING,PA,19606-8913,Berks,(610) 406-9431,40.30537,-75.86376
FLEETWOOD AREA PUBLIC LIBRARY,110 W ARCH ST,FLEETWOOD,PA,19522-1301,Berks,(610) 944-0146,40.45576,-75.82001
HAMBURG PUBLIC LIBRARY,35 NORTH 3RD ST,HAMBURG,PA,19526-1502,Berks,(610) 562-2843,40.55548,-75.98419
LOUISA GONSER COMM LIB INC,70 BIEBER ALLEY,KUTZTOWN,PA,19530-1701,Berks,(610) 683-5820,40.517551,-75.776071
MIFFLIN COMMUNITY LIBRARY,6 PHILADELPHIA AVE.,SHILLINGTON,PA,19607-1856,Berks,(610) 777-3911,40.303392,-75.967856
MUHLENBURG COMMUNITY LIBRARY,3612 KUTZTOWN RD,LAURELDALE,PA,19605-1842,Berks,(610) 929-0589,40.391293,-75.919801
NORTHEAST BRANCH LIBRARY,1348 NORTH 11TH ST,READING,PA,19604-1509,Berks,(610) 655-6361,40.355127,-75.915402
NORTHWEST BRANCH LIBRARY,901 SCHUYLKILL AVE,READING,PA,19601-2396,Berks,(610) 655-6360,40.348992,-75.942353
OLEY VALLEY,339 Main St.,Oley,PA,19547,Berks,(610) 987-4100,40.64544273,-77.60785051
READING PUBLIC LIBRARY,100 SOUTH 5TH ST.,READING,PA,19602-1602,Berks,(610) 655-6350,40.33359,-75.92775
ROBESONIA COMMUNITY LIBRARY,75-A SOUTH BROOKE ST,ROBESONIA,PA,19551-1401,Berks,(610) 693-3264,40.3646,-76.1416
SCH VALLEY COMMUNITY LIBRARY,1310 WASHINGTON RD,LEESPORT,PA,19533-9708,Berks,(610) 926-1555,40.437493,-75.963055
SINKING SPRING PUBLIC LIBRARY,3940 PENN AVE,SINKING SPRING,PA,19608-1168,Berks,(610) 678-4311,40.32629,-76.03726
SOUTHEAST BRANCH LIBRARY,1426 PERKIOMEN AVE,READING,PA,19602-2136,Berks,(610) 655-6362,40.329912,-75.909452
SPRING TOWNSHIP LIBRARY,78-C COMMERCE DRIVE,WYOMISSING,PA,19610-3313,Berks,(610) 373-9888,40.34664,-75.990002
VILLAGE LIBRARY OF MORGANTOWN,207 N. WALNUT STREET,MORGANTOWN,PA,19543-0797,Berks,(610) 286-1022,40.1567,-75.89369
WERNERSVILLE PUBLIC LIBRARY,100 NORTH REBER STREET,WERNERSVILLE,PA,19565-1412,Berks,(610) 678-8771,40.33059,-76.07666
WEST LAWN-WYOMISSING HILLS LIBRARY,101 WOODSIDE AVENUE,WEST LAWN,PA,19609-1637,Berks,(610) 678-4888,40.32822,-75.994184
WOMELSDORF COMMUNITY LIBRARY,203 W HIGH ST,WOMELSDORF,PA,19567-1207,Berks,(610) 589-1424,40.363622,-76.186737
WYOMISSING PUBLIC LIBRARY,9 READING BLVD,WYOMISSING,PA,19610-2084,Berks,(610) 374-2385,40.33503,-75.95855
ALTOONA AREA PUBLIC LIBRARY,1600 5TH AVENUE,ALTOONA,PA,16602-3693,Blair,(814) 946-0417,40.50816,-78.39859
BELLWOOD ANTIS PUBLIC LIBRARY,526 MAIN ST,BELLWOOD,PA,16617-1999,Blair,(814) 742-8234,40.60071,-78.33264
BLAIR COUNTY LIBRARY SYSTEM,1600 FIFTH AVE,Altoona,PA,16602-3693,Blair,(814) 946-0417,40.5082035,-78.3985662
CLAYSBURG AREA PUB LIBRARY INC,BEDFORD ST.,CLAYSBURG,PA,16625-0189,Blair,(814) 239-2782,40.3292,-78.5095
HOLLIDAYSBURG AREA PUB LIBRARY,1 Furnace Road,HOLLIDAYSBURG,PA,16648,Blair,(814) 695-5961,40.430713,-78.388859
MARTINSBURG COMMUNITY LIBRARY,201 SOUTH WALNUT ST,MARTINSBURG,PA,16662-1129,Blair,(814) 793-3335,40.30916,-78.32092
ROARING SPRING COMM LIBRARY,320 EAST MAIN ST,ROARING SPRING,PA,16673-1009,Blair,(814) 224-2994,40.33593,-78.40273
TYRONE-SNYDER TWNSHP PUB LIB,1000 PENNSYLVANIA AVE.,TYRONE,PA,16686-1521,Blair,(814) 684-1133,40.67053,-78.23865
WILLIAMSBURG PUBLIC LIBRARY,511 WEST 2ND ST,WILLIAMSBURG,PA,16693-1210,Blair,(814) 832-3367,40.46157,-78.20323
ALLEN F PIERCE FREE LIBRARY,115 CENTER STREET,TROY,PA,16947-1125,Bradford,(570) 297-2745,41.78842,-76.78713
BRADFORD COUNTY LIBRARY,16093 Route 6,Troy,PA,16947-9439,Bradford,(570) 297-2436,41.77784871,-76.61886156
BRADFORD COUNTY LIBRARY (BOOKMOBILE),16093 Route 6,Troy,PA,16947-9440,Bradford,(570) 297-2436,41.7778459,-76.6188827
GREEN FREE LIBRARY,14 NORTH CENTER ST,CANTON,PA,17724-1304,Bradford,(570) 673-5744,41.65449,-76.85168
MATHER MEMORIAL LIBRARY,23866 Route 220,ULSTER,PA,18850-0230,Bradford,(570) 358-3595,41.84599,-76.50211
MONROETON PUBLIC LIBRARY,110 COLLEGE AVENUE (PO BOX 145),MONROETON,PA,18832-0145,Bradford,(570) 265-2871,41.71182,-76.47233
NEW ALBANY COMMUNITY LIBRARY,98 Front Street,New Albany,PA,18833,Bradford,(570) 363-2418,41.602996,-76.4427957
SAYRE PUBLIC LIBRARY,122 SOUTH ELMER AVE,SAYRE,PA,18840-2085,Bradford,(570) 888-2256,41.98188,-76.51683
SPALDING MEMORIAL LIBRARY,724 S MAIN ST,ATHENS,PA,18810-1010,Bradford,(570) 888-7117,41.95041,-76.51617
TOWANDA PUBLIC LIBRARY,104 MAIN ST,TOWANDA,PA,18848-1895,Bradford,(570) 265-2470,41.77296,-76.44327
WYALUSING PUBLIC LIBRARY,202 CHURCH STREET,WYALUSING,PA,18853-0098,Bradford,(570) 746-1711,41.66691,-76.26199
BCFL Admin Level,150 SOUTH PINE ST,DOYLESTOWN,PA,18901-4932,Bucks,(215) 348-0332,40.30809,-75.1267
BENSALEM,3700 HULMEVILLE RD,BENSALEM,PA,19020-4449,Bucks,(215) 638-2030,40.10501,-74.938611
BUCKS COUNTY PUBLIC LIBRARIES,150 SOUTH PINE ST,DOYLESTOWN,PA,18901-4932,Bucks,(215) 348-0332,40.3081496,-75.1255997
FALLSINGTON LIBRARY,139 Yardley Road,Fallsington,PA,19054,Bucks,(215) 295-4449,40.1889659,-74.8191157
FR LIB OF NORTHAMPTON TWNSHP,25 UPPER HOLLAND ROAD,RICHBORO,PA,18954-1514,Bucks,(215) 357-3050,40.20853,-75.00934
FREE LIBRARY OF NEW HOPE & SOLEBURY,93 WEST FERRY ST,NEW HOPE,PA,18938-1332,Bucks,(215) 862-2330,40.36367,-74.95526
LANGHORNE,"301 South Pine Street,",LANGHORNE,PA,19047-2887,Bucks,(215) 757-2510,40.1816,-74.9144
LEVITTOWN,7311 NEW FALLS RD,LEVITTOWN,PA,19055-1006,Bucks,(215) 949-2324,40.155474,-74.853682
MARGARET R. GRUNDY MEMORIAL LIBRARY,680 Radcliffe Street,Bristol,PA,19007,Bucks,(215) 788-7891,40.0977266,-74.8500349
MORRISVILLE FR LIB ASSOCIATION,300 NORTH PENNSYLVANIA AVE,MORRISVILLE,PA,19067-6621,Bucks,(215) 295-4850,40.2118,-74.7783
NEWTOWN LIBRARY COMPANY,14 E Centre Ave,Newtown,PA,18940,Bucks,,40.2278745,-74.9363489
PERKASIE,491 ARTHUR AVE,PERKASIE,PA,18944-1033,Bucks,(215) 257-9718,40.368996,-75.300177
PIPERSVILLE FREE LIBRARY,7114 Old Easton Road,Pipersville,PA,18947,Bucks,(215) 766-7880,40.42672,-75.1395672
QUAKERTOWN,229 CALIFORNIA RD,QUAKERTOWN,PA,18951-2482,Bucks,(215) 536-3306,40.4497,-75.353268
RIEGELSVILLE LIBRARY,615 EASTON ROAD,RIEGELSVILLE,PA,18077-0065,Bucks,(610) 749-2357,40.59451,-75.19493
SOUTHAMPTON FREE LIBRARY,947 STREET RD,SOUTHAMPTON,PA,18966-4728,Bucks,(215) 322-1415,40.170848,-75.037785
TWP LIB OF LOWER SOUTHAMPTON,1983 BRIDGETOWN PIKE,FEASTERVILLE,PA,19053-2302,Bucks,(215) 355-1183,40.16284,-74.98413
VILLAGE LIBRARY OF WRIGHTSTOWN,727 PENNS PARK ROAD,WRIGHTSTOWN,PA,18940-9605,Bucks,(215) 598-3322,40.26445,-74.9936
WARMINSTER TOWNSHIP LIBRARY,1076 EMMA LANE,WARMINSTER,PA,18974-2632,Bucks,(215) 672-4362,40.218651,-75.103923
YARDLEY,1080 EDGEWOOD RD,YARDLEY,PA,19067-1648,Bucks,(215) 493-9020,40.223765,-74.838137
BUTLER AREA PUBLIC LIBRARY,218 NORTH MCKEAN ST,BUTLER,PA,16001-4911,Butler,(724) 287-1715,40.859109,-79.893763
BUTLER CO FED LIB SYSTEM,218 N McKean St,Butler,PA,16001,Butler,(724) 283-1880,40.8631977,-79.8940019
BUTLER COUNTY FED LIB SYSTEM-NORTH TRAILS,1553 WEST SUNBURY ROAD,WEST SUNBURY,PA,16061-1211,Butler,(724) 283-1880,41.03322,-79.90672
CRANBERRY PUBLIC LIBRARY,2525 ROCHESTER RD,CRANBERRY TOWNSHIP,PA,16066-6423,Butler,(724) 776-9100,40.6989,-80.10715
EVANS CITY PUBLIC LIBRARY,232 EAST MAIN ST,EVANS CITY,PA,16033-1231,Butler,(724) 538-8695,40.769374,-80.06257
MARS AREA PUBLIC LIBRARY,107 GRAND AVE,MARS,PA,16046-0415,Butler,(724) 625-9048,40.6987,-80.01126
PROSPECT COMMUNITY LIBRARY,357 MAIN STREET,PROSPECT,PA,16052-3221,Butler,(724) 865-9718,40.9045,-80.04438
SLIPPERY ROCK COMMUNITY LIBRARY,316 NORTH MAIN STREET,SLIPPERY ROCK,PA,16057-1018,Butler,(724) 738-9179,41.0671618,-80.060128
SOUTH BUTLER COMMUNITY LIBRARY,240 WEST MAIN ST,SAXONBURG,PA,16056-0454,Butler,(724) 352-4810,40.75054,-79.81276
ZELIENOPLE PUBLIC LIBRARY,227 SOUTH HIGH ST,ZELIENOPLE,PA,16063-1320,Butler,(724) 452-9330,40.794111,-80.135226
BEAVERDALE PUBLIC LIBRARY,506 JEFFERSON AVE,BEAVERDALE,PA,15921-0081,Cambria,(814) 487-7742,40.2407,-78.84206
CAMBRIA COUNTY LIBRARY SYSTEM,248 Main St,Johnstown,PA,15901-1677,Cambria,(814) 536-5131,40.3270064,-78.9224795
CARROLLTOWN PUBLIC LIBRARY,140 EAST CARROLL STREET,CARROLLTOWN,PA,15722-0316,Cambria,(814) 344-6300,40.60293,-78.70698
CRESSON PUBLIC LIBRARY,231 LAUREL AVE,CRESSON,PA,16630-1118,Cambria,(814) 886-2619,40.46169,-78.5889
EBENSBURG FREE PUBLIC LIBRARY,225 W HIGHLAND AVE,EBENSBURG,PA,15931-1013,Cambria,(814) 472-7957,40.489687,-78.726232
GALLITZIN PUBLIC LIBRARY,411 CONVENT STREET,GALLITZIN,PA,16641-1244,Cambria,(814) 886-4041,40.5095,-78.5593
HASTINGS PUBLIC LIBRARY,312 BEAVER ST,HASTINGS,PA,16646-0515,Cambria,(814) 247-8231,40.66418,-78.7134
HIGHLAND COMMUNITY LIBRARY,330 SCHOOLHOUSE RD,JOHNSTOWN,PA,15904-2924,Cambria,(814) 266-5610,40.26915,-78.83972
JOHNSTOWN,248 Main St,Johnstown,PA,15901-1677,Cambria,(814) 536-5131,40.3270064,-78.9224795
LILLY WASHINGTON PUB LIBRARY,520 CHURCH ST,LILLY,PA,15938-1118,Cambria,(814) 886-7543,40.42655,-78.62102
NANTY GLO PUBLIC LIBRARY,942 ROBERTS ST,NANTY GLO,PA,15943-1303,Cambria,(814) 749-0111,40.470568,-78.836323
NORTHERN CAMBRIA LIBRARY-NORTH,1030 PHILADELPHIA AVENUE,NORTHERN CAMBRIA,PA,15714-1339,Cambria,(814) 948-8222,40.663005,-78.781044
PATTON PUBLIC LIBRARY,404 MAGEE AVENUE,PATTON,PA,16668-1209,Cambria,(814) 674-8231,40.633851,-78.647939
PORTAGE PUBLIC LIBRARY,704 MAIN STREET,PORTAGE,PA,15946-1715,Cambria,(814) 736-4340,40.38575,-78.67303
SOUTH FORK PUBLIC LIBRARY,320 MAIN ST,SOUTH FORK,PA,15956-1340,Cambria,(814) 495-4812,40.364931,-78.791281
CAMERON COUNTY PUBLIC LIBRARY,27 WEST 4TH. STREET,EMPORIUM,PA,15834-0430,Cameron,(814) 486-8011,41.51144,-78.23897
DIMMICK MEMORIAL LIBRARY,54 BROADWAY,JIM THORPE,PA,18229-2022,Carbon,(570) 325-2131,40.86392,-75.73989
LEHIGHTON AREA MEM LIBRARY,124 NORTH ST,LEHIGHTON,PA,18235-1589,Carbon,(610) 377-2750,40.83458,-75.70928
PALMERTON AREA LIBRARY,402 DELAWARE AVE,PALMERTON,PA,18071-1995,Carbon,(610) 826-3424,40.80276,-75.60759
PANTHER VALLEY PUBLIC LIBRARY,117 E Bertsch St,Lansford,PA,18232,Carbon,(570) 645-3780,40.831762,-75.881625
PENN KIDDER BRANCH,2588 Route 903,Albrightsville,PA,18210,Carbon,(570) 722-0300,41.0088074,-75.5987906
PENN-KIDDER,P.O. Box 783,Albrightsville,PA,18210,Carbon,(570) 722-0300,41.0229731,-75.6463014
WEATHERLY COMMUNITY LIBRARY,20 Carbon St,Weatherly,PA,18255,Carbon,(570) 427-5085,40.64544273,-77.60785051
CENTRE CO LIB & HIST MUSEUM,203 NORTH ALLEGHENY ST,BELLEFONTE,PA,16823-1601,Centre,(814) 355-1516,40.913434,-77.778406
CENTRE CO LIB & HIST MUSEUM (BOOKMOBILE),203 NORTH ALLEGHENY ST,BELLEFONTE,PA,16823-1691,Centre,(814) 355-1516,40.91343,-77.7784
CENTRE HALL AREA BRANCH,109 W BERYL ST,CENTRE HALL,PA,16828,Centre,(814) 364-2580,40.844569,-77.687064
CENTRE SYS ADMIN UNIT,211 South Allen,State College,PA,16801-4806,Centre,(814) 237-6236,40.7933659,-77.8602375
EAST PENNS VALLEY LIBRARY,225 E. Main St.,Millheim,PA,16854,Centre,,40.8941152,-77.4677587
HOLT MEMORIAL LIBRARY,9 WEST PINE ST,PHILIPSBURG,PA,16866-1611,Centre,(814) 342-1987,40.895151,-78.227253
SCHLOW MEMORIAL LIBRARY,211 S. Allen Street,STATE COLLEGE,PA,16801-3852,Centre,(814) 237-6236,40.7934,-77.8598
ATGLEN PUBLIC LIBRARY,413 VALLEY AVENUE,ATGLEN,PA,19310-1402,Chester,(610) 593-6848,39.949124,-75.97463
AVON GROVE LIBRARY,117 ROSEHILL AVENUE,WEST GROVE,PA,19390-1214,Chester,(610) 869-2004,39.82219,-75.82637
CHESTER,450 Exton Square Parkway,Exton,PA,19341,Chester,(610) 280-2600,40.03169,-75.62085
CHESTER CO LIB SYS,450 Exton Sq Parkway,Exton,PA,19341-2496,Chester,(610) 280-2600,40.03169,-75.62085
CHESTER COUNTY LIBRARY,450 EXTON SQUARE PARKWAY,EXTON,PA,19341-2496,Chester,(610) 280-2600,40.03267,-75.6223
CHESTER COUNTY LIBRARY SYSTEM,450 Exton Sq Parkway,Exton,PA,19341-2496,Chester,(610) 280-2600,40.03136058,-75.62087059
CHESTER SPRINGS LIBRARY,1709 ART SCHOOL ROAD,CHESTER SPRINGS,PA,19425-1402,Chester,(610) 827-9212,40.1084,-75.6462
COATESVILLE AREA PUB LIBRARY,501 E LINCOLN HIGHWAY,COATESVILLE,PA,19320-3413,Chester,(610) 384-4115,39.983077,-75.823858
DOWNINGTOWN LIBRARY,122 Wallace Ave.,DOWNINGTOWN,PA,19335-2946,Chester,(610) 269-2741,40.00171,-75.71289
EASTTOWN LIBRARY & INFO CENTER,720 FIRST AVENUE,BERWYN,PA,19312-1769,Chester,(610) 644-0138,40.04475,-75.44186
HENRIETTA HANKIN BRANCH LIBRARY,215 WINGATE DRIVE,CHESTER SPRINGS,PA,19525,Chester,(610) 321-1715,40.3096,-75.5833
HONEY BROOK COMM LIBRARY,687 COMPASS ROAD,HONEY BROOK,PA,19344-0906,Chester,(610) 273-3303,40.08652,-75.91563
KENNETT LIBRARY,216 EAST STATE STREET,KENNETT SQUARE,PA,19348-3112,Chester,(610) 444-2702,39.84714,-75.71007
MALVERN PUBLIC LIBRARY,1 E FIRST AVENUE,MALVERN,PA,19355-2420,Chester,(610) 644-7259,40.03342,-75.51271
OXFORD PUBLIC LIBRARY,48 SOUTH SECOND STREET,OXFORD,PA,19363-1369,Chester,(610) 932-9625,39.78452,-75.98051
PAOLI LIBRARY,18 DARBY RD,PAOLI,PA,19301-1416,Chester,(610) 296-7996,40.041548,-75.48232
PARKESBURG FREE LIBRARY,105 WEST ST,PARKESBURG,PA,19365-1499,Chester,(610) 857-5165,39.95911,-75.91933
PHOENIXVILLE PUBLIC LIBRARY,183 SECOND AVE,PHOENIXVILLE,PA,19460-3420,Chester,(610) 933-3103,40.12877,-75.51325
SPRING CITY FR PUBLIC LIBRARY,245 BROAD ST,SPRING CITY,PA,19475-1702,Chester,(610) 948-4130,40.17736,-75.54929
WEST CHESTER PUBLIC LIBRARY,415 NORTH CHURCH ST,WEST CHESTER,PA,19380-2401,Chester,(610) 696-1721,39.96347,-75.6091
CLARION FREE LIBRARY,644 MAIN ST.,CLARION,PA,16214-0663,Clarion,(814) 226-7172,41.2136,-79.38285
EAST BRADY PUBLIC LIBRARY,102 4th St,East Brady,PA,16028,Clarion,(724) 526-5985,40.9841931,-79.6191433
ECCLES LESHER MEMORIAL LIBRARY,673 MAIN ST.,RIMERSBURG,PA,16248-0359,Clarion,(814) 473-3800,41.04333,-79.50172
FOXBURG FREE LIBRARY ASSOC,31 MAIN STREET,FOXBURG,PA,16036-0304,Clarion,(724) 659-3431,41.13598,-79.79823
KNOX PUBLIC LIBRARY,305 North MAIN ST,KNOX,PA,16232-,Clarion,(814) 797-1054,41.233061,-79.537739
REDBANK VALLEY PUBLIC LIBRARY,720 BROAD ST,NEW BETHLEHEM,PA,16242-1107,Clarion,(814) 275-2870,41.00231,-79.32648
CLEARFIELD CO PUB LIB (BOOKMOBILE),601 BEECH ST,CURWENSVILLE,PA,16833,Clearfield,(814) 236-0589,40.96835,-78.52133
CLEARFIELD CO PUB LIB FED,601 BEECH ST,CURWENSVILLE,PA,16833-1504,Clearfield,(814) 236-0589,40.968351,-78.521331
CURWENSVILLE PUBLIC LIBRARY,601 BEECH ST,CURWENSVILLE,PA,16833,Clearfield,(814) 236-0355,40.968351,-78.521331
DUBOIS PUBLIC LIBRARY,31 S BRADY ST,DUBOIS,PA,15801-2148,Clearfield,(814) 371-5930,41.118285,-78.762704
GLENDALE AREA PUBLIC LIBRARY,961 Forest St.,Coalport,PA,16627,Clearfield,(814) 672-4378,40.749728,-78.532954
JOSEPH & ELIZABETH SHAW LIB,1 SOUTH FRONT ST,CLEARFIELD,PA,16830-2386,Clearfield,(814) 765-3271,41.02198,-78.43978
OSCEOLA MILLS COMMUNITY LIBRARY,600 Lingle Street,Osceola Mills,PA,16666,Clearfield,,40.851104,-78.269448
ANNIE HALENBAKE ROSS LIBRARY,232 WEST MAIN ST,LOCK HAVEN,PA,17745-1241,Clinton,(570) 748-3321,41.138378,-77.450804
RENOVO AREA PUBLIC LIBRARY,317 SEVENTH ST,RENOVO,PA,17764-1105,Clinton,(570) 923-0390,41.325723,-77.752084
BLOOMSBURG PUBLIC LIBRARY,225 MARKET ST,BLOOMSBURG,PA,17815-1726,Columbia,(570) 784-0883,41.0019,-76.45749
COLUMBIA CNTY TRAVELING LIB,702 SAWMILL ROAD,BLOOMSBURG,PA,17815,Columbia,(570) 387-8782,40.9934,-76.47835
COLUMBIA CNTY TRAVELING LIB (BOOKMOBILE),702 SAWMILL ROAD,BLOOMSBURG,PA,17815,Columbia,(570) 387-8782,40.993404,-76.478352
McBride Memorial Library,500 Market Street,BERWICK,PA,18603-3817,Columbia,(570) 752-2241,41.05787,-76.236324
ORANGEVILLE PUBLIC LIBRARY,301 Mill Street,Orangeville,PA,17859,Columbia,(570) 683-5354,41.078142,-76.41689
BENSON MEMORIAL LIBRARY,213 NORTH FRANKLIN ST,TITUSVILLE,PA,16354-1788,Crawford,(814) 827-2913,41.62835,-79.67343
CAMBRIDGE SPRINGS PUB LIBRARY,158 MCCLELLAN ST,CAMBRIDGE SPRINGS,PA,16403-1018,Crawford,(814) 398-2123,41.80569,-80.054
CLARK MEMORIAL LIBRARY,21713 Cussewago St.,Venango,PA,16440,Crawford,(814) 398-9956,41.7727188,-80.1111605
COCHRANTON AREA PUBLIC LIBRARY,107 W PINE ST,COCHRANTON,PA,16314-0296,Crawford,(814) 425-3996,41.51977,-80.0446
CRAWFORD CO FED LIBRARY SYSTEM,848 NORTH MAIN ST,MEADVILLE,PA,16335,Crawford,,41.639694,-80.149641
HENRETTA MEMORIAL LIBRARY ,14261 Cemetery Road,Harmonsburg,PA,16422,Crawford,,41.6580345,-80.3146774
JAMES A STONE MEMORIAL LIBRARY,1101 MAIN STREET,CONNEAUTVILLE,PA,16406-0281,Crawford,(814) 587-2142,41.757516,-80.367953
LINESVILLE COMMUNITY PUBLIC LIBRARY,111 PENN STREET,LINESVILLE,PA,16424-0097,Crawford,(814) 683-4354,41.65657,-80.4249
MARGARET SHONTZ MEM LIBRARY,145 SECOND ST,CONNEAUT LAKE,PA,16316-5117,Crawford,(814) 382-6666,41.60192,-80.30292
MEADVILLE PUBLIC LIBRARY,848 NORTH MAIN STREET,MEADVILLE,PA,16335-2689,Crawford,(814) 336-1773,41.63984,-80.14934
SAEGERTOWN AREA LIBRARY,325 BROAD ST,SAEGERTOWN,PA,16433-8710,Crawford,(814) 763-5203,41.720308,-80.147822
SPRINGBORO PUBLIC LIBRARY,110 S MAIN ST,SPRINGBORO,PA,16435-0051,Crawford,(814) 587-3901,41.79878,-80.36823
AMELIA S GIVIN LIBRARY,114 NORTH BALTIMORE AVE,MT HOLLY SPRINGS,PA,17065-1236,Cumberland,(717) 486-3688,40.115828,-77.189338
BOSLER FREE LIBRARY,158 WEST HIGH ST,CARLISLE,PA,17013-2988,Cumberland,(717) 243-4642,40.20164,-77.19287
CLEVE J FREDRICKSEN LIBRARY,100 NORTH 19TH STREET,CAMP HILL,PA,17011-3900,Cumberland,(717) 761-3900,40.24128,-76.91649
CUMBERLAND COUNTY LIBRARY SYSTEM,"1601 RITNER HWY, SUITE 100",CARLISLE,PA,17013-9380,Cumberland,(717) 240-6175,40.199626,-77.214023
EAST PENNSBORO LIBRARY,98 S ENOLA DRIVE,ENOLA,PA,17025,Cumberland,(717) 732-4274,40.287488,-76.932496
JOHN GRAHAM PUBLIC LIBRARY,9 PARSONAGE ST,NEWVILLE,PA,17241-1399,Cumberland,(717) 776-5900,40.17103,-77.40031
JOSEPH T. SIMPSON PUBLIC LIBRARY,16 N WALNUT ST,MECHANICSBURG,PA,17055-3362,Cumberland,(717) 766-0171,40.21516,-77.00293
NEW CUMBERLAND PUBLIC LIBRARY,1 BENJAMIN PLAZA,NEW CUMBERLAND,PA,17070-1571,Cumberland,(717) 774-7820,40.2034,-76.87
SHIPPENSBURG PUBLIC LIBRARY,73 W. KING ST.,SHIPPENSBURG,PA,17257-1224,Cumberland,(717) 532-4508,40.046363,-77.529265
DAUPHIN COUNTY LIBRARY SYSTEM (MARCO),101 WALNUT ST.,HARRISBURG,PA,17101-1696,Dauphin,(717) 234-4961,40.259489,-76.884495
EAST SHORE AREA LIBRARY,4501 ETHEL ST.,HARRISBURG,PA,17109,Dauphin,(717) 234-4961,40.304088,-76.818094
ELIZABETHVILLE AREA BRANCH LIBRARY,80 NORTH MARKET ST,ELIZABETHVILLE,PA,17023,Dauphin,(717) 362-9825,40.552437,-76.813559
HERSHEY PUBLIC LIBRARY,701 COCOA AVE.,HERSHEY,PA,17033-1532,Dauphin,(717) 533-6555,40.27759,-76.647491
JOHNSON MEMORIAL LIBRARY,799 E CENTER ST,MILLERSBURG,PA,17061,Dauphin,(717) 692-2658,40.542081,-76.951589
KLINE LIBRARY,530 S. 29TH ST.,HARRISBURG,PA,17104,Dauphin,(717) 234-3934,40.26632,-76.841138
MADELINE L OLEWINE MEMORIAL LIBRARY,2410 NORTH THIRD STREET,HARRISBURG,PA,17110,Dauphin,(717) 232-7286,40.292991,-76.893811
McCORMICK RIVERFRONT LIBRARY,101 WALNUT ST,HARRISBURG,PA,17101,Dauphin,(717) 234-4976,40.259489,-76.884495
MIDDLETOWN PUBLIC LIBRARY,21 NORTH PENNELL ROAD,MEDIA,PA,19063,Dauphin,(717) 902-6412,39.9136744,-75.4394274
NORTHERN DAUPHIN BRANCH LIBRARY,683 MAIN ST,LYKENS,PA,17048,Dauphin,(717) 453-9315,40.566947,-76.698823
PAXTANG SWATARA AREA COMMUNITY LIBRARY,3700 Rutherford St,Harrisburg,PA,17111,Dauphin,(717) 564-0385,40.260857,-76.82793
WILLIAM & MARION ALEXANDER FAMILY LIBRARY,205 S JOHN ST,HUMMELSTOWN,PA,17036,Dauphin,(717) 566-0949,40.263125,-76.71168
ASTON FREE LIBRARY,3270 CONCORD ROAD,ASTON,PA,19014-1905,Delaware,(610) 494-5877,39.86692885,-75.42002678
COLLINGDALE PUBLIC LIBRARY,823 MACDADE BLVD,COLLINGDALE,PA,19023-3794,Delaware,(610) 583-2214,39.91119,-75.27744
DARBY LIBRARY,1001 MAIN ST,DARBY,PA,19023-0164,Delaware,(610) 586-7310,39.91961,-75.26312
DELAWARE COUNTY LIBRARY SYSTEM,340 N MIDDLETOWN RD,MEDIA,PA,19063-5597,Delaware,(610) 891-8622,39.9005163,-75.4103942
FOLCROFT PUB LIBRARY,1725 DELMAR DR,FOLCROFT,PA,19032-2002,Delaware,(610) 586-1690,39.89394,-75.27802
GLENOLDEN LIBRARY,211 S LLANWELLYN AVE,GLENOLDEN,PA,19036-3308,Delaware,(610) 583-1010,39.8995,-75.292522
HAVERFORD TOWNSHIP FR LIBRARY ASSOCIATION,1601 DARBY ROAD,HAVERTOWN,PA,19083-3798,Delaware,(610) 446-3082,39.98091,-75.30483
HELEN KATE FURNESS FR LIBRARY,100 NORTH PROVIDENCE RD,WALLINGFORD,PA,19086-6199,Delaware,(610) 566-9331,39.90451,-75.37503
J LEWIS CROZER LIBRARY,620 ENGLE ST,CHESTER,PA,19013-2199,Delaware,(610) 494-3454,39.83778,-75.38711
JOHN R WELSH MEMORIAL MUNICIPAL BRANCH LIBRARY,501 Bywood Ave.,UPPER DARBY,PA,19082-3135,Delaware,(610) 734-7649,39.960012,-75.263027
LANSDOWNE PUBLIC LIBRARY,55 SOUTH LANSDOWNE AVE,LANSDOWNE,PA,19050-2804,Delaware,(610) 623-0239,39.93622,-75.2718
MARPLE PUBLIC LIBRARY,SPROUL and SPRINGFIELD RDS,BROOMALL,PA,19008-2399,Delaware,(610) 356-1510,39.9737,-75.3608
MARY M CAMPBELL LIBRARY,10th and GREEN STS,MARCUS HOOK,PA,19061-4591,Delaware,(610) 485-6519,39.8393,-75.4661
MED UPPER PROV FREE LIBRARY,1 EAST FRONT ST,MEDIA,PA,19063-2998,Delaware,(610) 566-1918,39.9207,-75.4181
MEM LIBRARY OF RADNOR TWNSHP,114 WEST WAYNE AVE,WAYNE,PA,19087-4019,Delaware,(610) 687-1124,40.043311,-75.388356
MIDDLETOWN FREE LIBRARY,21 NORTH PENNELL ROAD,LIMA,PA,19037-0275,Delaware,(610) 566-7828,39.91315,-75.4397
NEWTOWN PUBLIC LIBRARY,201 BISHOP HOLLOW RD,NEWTOWN SQUARE,PA,19073-3219,Delaware,(610) 353-1022,39.98101,-75.40593
NORWOOD PUBLIC LIBRARY,513 WELCOME AVE,NORWOOD,PA,19074-1425,Delaware,(610) 534-0693,39.89066,-75.30129
PRIMOS BRANCH LIBRARY,409 ASHLAND AVE,PRIMOS,PA,19018-2040,Delaware,(610) 622-8091,39.918555,-75.305782
PROSPECT PARK FREE LIBRARY,720 MARYLAND AVE,PROSPECT PARK,PA,19076-1318,Delaware,(610) 532-4643,39.88798,-75.308
RACHEL KOHL COMMUNITY LIBRARY,687 SMITHBRIDGE ROAD,GLEN MILLS,PA,19342-1255,Delaware,(610) 358-3445,39.8851,-75.5236
RIDLEY PARK PUBLIC LIBRARY,107 E. WARD STREET,RIDLEY PARK,PA,19078-3097,Delaware,(610) 583-7207,39.88071,-75.32432
RIDLEY TOWNSHIP PUBLIC LIBRARY,100 E MACDADE BLVD,FOLSOM,PA,19033-2592,Delaware,(610) 583-0593,39.88571,-75.33153
SHARON HILL PUBLIC LIBRARY,246 SHARON AVE,SHARON HILL,PA,19079-2098,Delaware,(610) 586-3993,39.90635,-75.27196
SPRINGFIELD TOWNSHIP LIBRARY,70 POWELL RD,SPRINGFIELD,PA,19064-2495,Delaware,(610) 543-2113,39.93024,-75.32937
SWARTHMORE PUBLIC LIBRARY,121 PARK AVENUE,SWARTHMORE,PA,19081-1536,Delaware,(610) 543-0436,39.90106,-75.34844
TINICUM MEMORIAL PUB LIBRARY,620 SENECA ST,ESSINGTON,PA,19029-1199,Delaware,(610) 521-9344,39.87199,-75.28318
TREDYFFRIN PUBLIC LIBRARY,582 UPPER GULPH RD,WAYNE,PA,19087-2096,Delaware,(610) 688-7092,40.0605,-75.35083
UPPER CHICHESTER LIBRARY,3374 Chichester Ave #19,Upper Chichester,PA,19061,Delaware,(610) 485-0200,39.8399312,-75.44296
UPPR DRBY & SLLRS MEM PUB LIB,76 SOUTH STATE RD,UPPER DARBY,PA,19082-1918,Delaware,(610) 789-4440,39.937311,-75.370636
YEADON PUBLIC LIBRARY,809 LONGACRE BLVD,YEADON,PA,19050-3319,Delaware,(610) 623-4090,39.9372,-75.2636
JOHNSONBURG PUBLIC LIBRARY,520 MARKET ST,JOHNSONBURG,PA,15845-1284,Elk,(814) 965-4110,41.49591,-78.68235
RIDGWAY FREE PUBLIC LIBRARY,329 CENTER ST,RIDGWAY,PA,15853-1031,Elk,(814) 773-7573,41.42147,-78.7272
SAINT MARYS PUBLIC LIBRARY,127 CENTER ST,ST MARYS,PA,15857-1195,Elk,(814) 834-6141,41.42809,-78.5619
WILCOX PUBLIC LIBRARY,105 CLARION STREET,WILCOX,PA,15870-0058,Elk,(814) 929-5639,41.5715,-78.6223
ALBION AREA PUBLIC LIBRARY,111 EAST PEARL STREET,ALBION,PA,16401-1202,Erie,(814) 756-5400,41.89208,-80.36124
CORRY PUBLIC LIBRARY,117 W WASHINGTON ST,CORRY,PA,16407-1536,Erie,(814) 664-7611,41.92206,-79.64179
EDINBORO BRANCH LIBRARY,124 MEADVILLE ST,EDINBORO,PA,16412-2508,Erie,(814) 451-7081,41.873154,-80.131076
ERIE COUNTY PUBLIC LIBRARY,160 East Front Street,ERIE,PA,16507-1554,Erie,(814) 451-6900,42.1362316,-80.08294523
ERIE COUNTY PUBLIC LIBRARY (RURAL BOOKMOBILE),160 East Front Street,ERIE,PA,16507-1554,Erie,(814) 451-6900,42.1362316,-80.08294523
IROQUOIS AVENUE BRANCH LIBRARY,4212 IROQUOIS AVE,ERIE,PA,16511-2198,Erie,(814) 451-7082,42.152307,-80.013571
LINCOLN COMMUNITY CENTER,1255 MANCHESTER ROAD,ERIE,PA,16505,Erie,(814) 451-7085,42.0679893,-80.2238712
MCCORD MEMORIAL LIBRARY,32 WEST MAIN STREET,NORTH EAST,PA,16428-1136,Erie,(814) 725-4057,42.21564,-79.83553
MILLCREEK MALL BRANCH LIBRARY,600 MILLCREEK MALL,ERIE,PA,16565-0601,Erie,(814) 451-7084,42.0655,-80.1046
RICE AVENUE COMMUNITY PUBLIC LIBRARY,705 RICE AVENUE,GIRARD,PA,16417-1122,Erie,(814) 774-4982,42.00651,-80.32482
UNION CITY PUBLIC LIBRARY,2 STRANAHAN ST.,UNION CITY,PA,16438-1322,Erie,(814) 438-3209,41.89651,-79.84576
WATERFORD PUBLIC LIBRARY,24 SOUTH PARK ROW,WATERFORD,PA,16441-0820,Erie,(814) 796-4729,41.9542,-79.9863
BELLE VERNON PUBLIC LIBRARY,505 SPEER ST,BELLE VERNON,PA,15012-1540,Fayette,(724) 929-6642,40.12946,-79.8661
BROWNFIELD COMMUNITY PUBLIC LIBRARY,291 Banning Road,Dawson,PA,15428,Fayette,(724) 529-7680,40.063382,-79.660309
BROWNSVILLE FR PUBLIC LIBRARY,100 SENECA ST,BROWNSVILLE,PA,15417-1971,Fayette,(724) 785-7272,40.02125,-79.88687
CARNEGIE FREE LIBRARY OF CONNELLSVILLE,299 S PITTSBURGH ST,CONNELLSVILLE,PA,15425-3580,Fayette,(724) 628-1380,40.016,-79.58931
DUNBAR COMMUNITY LIBRARY,60 Connellsville Street,Dunbar,PA,15341,Fayette,(724) 277-4775,39.9751937,-79.6158167
FAYETTE COUNTY LIBRARY SYSTEM,14 Water St,Smithfield,PA,15478-0097,Fayette,,39.80028554,-79.810583
FRAZIER COMMUNITY LIBRARY (SCHOOL & COMMUNITY),142 Constitution Street,Perryopolis,PA,15473,Fayette,(724) 736-8480,40.088239,-79.7562279
GERMAN MASONTOWN PUB LIBRARY,9 SOUTH WASHINGTON ST,MASONTOWN,PA,15461-2025,Fayette,(724) 583-7030,39.84671,-79.90086
POINT MARION PUBLIC LIBRARY,399 Ontario Street,Point Marion,PA,15474,Fayette,(724) 725-9553,39.7363248,-79.8977726
REPUBLIC COMMUNITY LIBRARY,13 DeGregory Circle,Republic,PA,15475,Fayette,(724) 246-0404,39.9619889,-79.879035
ROSTRAVER PUBLIC LIBRARY,800 FELLSBURG RD,BELLE VERNON,PA,15012-4708,Fayette,(724) 379-5511,40.1536,-79.8119
SMITHFIELD PUBLIC LIBRARY,14 Water Street,Smithfield,PA,15478,Fayette,(724) 569-1777,39.8004408,-79.8105403
UNIONTOWN PUBLIC LIBRARY,24 JEFFERSON ST,UNIONTOWN,PA,15401-3699,Fayette,(724) 437-1165,39.89941,-79.72196
MARIENVILLE AREA LIBRARY,110 EAST SPRUCE ST,MARIENVILLE,PA,16239-0306,Forest,(814) 927-8552,41.46926,-79.12359
SARAH S BOVARD MEM LIBRARY,156 ELM ST.,TIONESTA,PA,16353-0127,Forest,(814) 755-4454,41.490945,-79.45635
ALEXANDER HAMILTON MEM FR LIB,45 EAST MAIN STREET,WAYNESBORO,PA,17268-1691,Franklin,(717) 762-3335,39.75524,-77.57709
BLUE RIDGE SUMMIT FREE LIBRARY,,BLUE RIDGE SUMMIT,PA,17214-0034,Franklin,(717) 794-5929,40.649523,-77.60449
CHAMBERSBURG,101 Ragged Edge Rd S,Chambersburg,PA,17202,Franklin,(717) 709-0282,39.9228186,-77.591976
COYLE FREE LIBRARY,102 NORTH MAIN ST,CHAMBERSBURG,PA,17201,Franklin,(717) 263-1054,39.93924129,-77.66084611
FENDRICK LIBRARY,20 North Main St,Mercersburg,PA,17236,Franklin,(717) 328-9233,39.8288526,-77.9038447
FRANKLIN COUNTY BOOKMOBILE,101 RAGGED EDGE ROAD SOUTH,CHAMBERSBURG,PA,17202-3195,Franklin,(717) 709-0282,39.93822,-77.66124
FRANKLIN COUNTY BOOKMOBILE,101 RAGGED EDGE ROAD SOUTH,CHAMBERSBURG,PA,17202-3195,Franklin,(717) 709-0282,39.9228212,-77.5919931
FT. LOUDON BRANCH LIBRARY,210 MULLEN STREET,FT. LOUDON,PA,17224-0092,Franklin,(717) 369-4704,39.915399,-77.907463
GROVE FAMILY LIBRARY,101 Ragged Edge Rd South,CHAMBERSBURG,PA,17201-4450,Franklin,(717) 264-9663,39.920564,-77.592864
LILIAN S. BESORE MEMORIAL LIBRARY,102 NORTH MAIN STREET,CHAMBERSBURG,PA,17201-1638,Franklin,(717) 709-0282,39.78884,-77.722721
ST. THOMAS BRANCH LIBRARY,7435 SCHOOL HOUSE ROAD,ST. THOMAS,PA,17252-9650,Franklin,(717) 369-4716,39.9063,-77.8091
FULTON COUNTY LIBRARY,227 NORTH FIRST ST,MCCONNELLSBURG,PA,17233-1003,Fulton,(717) 485-5327,39.9354,-77.99943
HUSTONTOWN BRANCH LIBRARY,P O BOX 426,HUSTONTOWN,PA,17229-0426,Fulton,(717) 987-3606,40.0383,-78.0205
EVA K BOWLBY PUBLIC LIBRARY,311 NORTH WEST ST,WAYNESBURG,PA,15370-1238,Greene,(724) 627-9776,39.89934,-80.19117
EVA K BOWLBY PUBLIC LIBRARY (BOOKMOBILE),311 NORTH WEST ST,WAYNESBURG,PA,15370-1238,Greene,(724) 627-9776,39.89934,-80.19117
FLENNIKEN PUBLIC LIBRARY,102 EAST GEORGE ST,CARMICHAELS,PA,15320-1202,Greene,(724) 966-5263,39.89701,-79.97488
GREENE CO LIB SYS,"107 Hatfield St,  PO Box 274",Jefferson,PA,15344-0274,Greene,(724) 883-2107,39.9345055,-80.0610941
GREENE COUNTY LIBRARY SYSTEM,107 HATFIELD ST.,JEFFERSON,PA,15344-1238,Greene,(724) 883-2107,39.93448646,-80.06078482
HUNTINGDON COUNTY LIBRARY,330 PENN ST,HUNTINGDON,PA,16652-1487,Huntingdon,(814) 643-0200,40.4842,-78.01057
HUNTINGDON COUNTY LIBRARY (BOOKMOBILE),330 PENN ST,HUNTINGDON,PA,16652-1487,Huntingdon,(814) 643-0200,40.484208,-78.010571
MEMORIAL PUBLIC LIBRARY OR THE BOROUGH OF ALEXANDRIA,313 Main St.,Alexandria,PA,16611,Huntingdon,(814) 669-4313,40.5571062,-78.0989833
BLAIRSVILLE PUBLIC LIBRARY,113 N. WALNUT ST.,BLAIRSVILLE,PA,15717-1347,Indiana,(724) 459-6077,40.432052,-79.264783
BURRELL TOWNSHIP LIBRARY,PARK DRIVE,BLACK LICK,PA,15716-0476,Indiana,(724) 248-7122,40.4668,-79.1899
HOMER CENTER PUBLIC LIBRARY,6 North Main Street,Homer City,PA,15748,Indiana,(724) 541-3381,40.5423534,-79.1612478
INDIANA FREE LIBRARY INC,845 PHILADELPHIA ST,INDIANA,PA,15701-3908,Indiana,(724) 465-8841,40.62285,-79.15514
SALTSBURG FREE LIBRARY,417 Walnut Street,Saltsburg,PA,15681,Indiana,(724) 639-9763,40.4844897,-79.4473074
MENGLE MEMORIAL LIBRARY,324 MAIN STREET,BROCKWAY,PA,15824-1323,Jefferson,(814) 265-8245,41.2492,-78.8003
PUNXSUTAWNEY MEMORIAL LIBRARY,301 EAST MAHONING ST,PUNXSUTAWNEY,PA,15767-2198,Jefferson,(814) 938-5020,40.94453,-78.96889
REBECCA M ARTHURS MEM LIBRARY,223 VALLEY ST,BROOKVILLE,PA,15825-1033,Jefferson,(814) 849-5512,41.165229,-79.085169
REYNOLDSVILLE PUBLIC LIBRARY,460 E. MAIN ST.,REYNOLDSVILLE,PA,15851-1251,Jefferson,(814) 653-9471,41.09596,-78.88827
SUMMERVILLE PUBLIC LIBRARY,WEST PENN ST,SUMMERVILLE,PA,15864-0301,Jefferson,(814) 856-3169,41.0925,-79.1694
SYKESVILLE PUBLIC LIBRARY,21 EAST MAIN ST,SYKESVILLE,PA,15865-0021,Jefferson,(814) 894-5243,41.05046,-78.82191
JUNIATA COUNTY LIBRARY,498 JEFFERSON ST,MIFFLINTOWN,PA,17059-1400,Juniata,(717) 436-6378,40.569518,-77.394893
ABINGTON COMMUNITY LIBRARY,1200 W GROVE ST,CLARKS SUMMIT,PA,18411-9501,Lackawanna,(570) 587-3440,41.48537,-75.71743
BOOKMOBILE ONE,500 VINE STREET,SCRANTON,PA,18509-3298,Lackawanna,(570) 348-3000,41.41128,-75.65963
CARBONDALE PUBLIC LIBRARY,5 NORTH MAIN ST,CARBONDALE,PA,18407-2303,Lackawanna,(570) 282-4281,41.7185,-75.4925
DALTON COMMUNITY LIBRARY,113 EAST MAIN ST,DALTON,PA,18414-0086,Lackawanna,(570) 563-2014,41.53434,-75.73578
LACKAWANNA CNTY LIBRARY SYSTEM,520 VINE STREET,SCRANTON,PA,18509-3205,Lackawanna,(570) 348-3003,41.4111426,-75.6591607
LACKAWANNA COUNTY CHILDREN'S LIBRARY,520 VINE ST,SCRANTON,PA,18509-3205,Lackawanna,(570) 348-3015,41.41108,-75.659234
NANCY KAY HOLMES BRANCH,GREEN RIDGE ST and WYOMING AVE,SCRANTON,PA,18509-1929,Lackawanna,(570) 348-3029,41.43,-75.6438
NORTH POCONO PUBLIC LIBRARY,1315 Church St,MOSCOW,PA,18444-9254,Lackawanna,(570) 842-4700,41.33505,-75.52327
NORTHEAST LIBRARY,"Albright Mem Bldg, 500 Vine St",Scranton,PA,18509-3298,Lackawanna,(570) 348-3000,41.4108189,-75.6593113
SCRANTON PUBLIC LIBRARY,500 VINE STREET,SCRANTON,PA,18509-3298,Lackawanna,(570) 348-3000,41.41128,-75.65963
TAYLOR COMMUNITY LIBRARY,200 UNION ST,TAYLOR,PA,18517-1774,Lackawanna,(570) 562-3180,41.38467,-75.71083
VALLEY COMMUNITY LIBRARY,739 RIVER ST,PECKVILLE,PA,18452-2313,Lackawanna,(570) 489-1765,41.47774,-75.57866
ADAMSTOWN AREA LIBRARY,3000 NORTH READING ROAD ROUTE 272,ADAMSTOWN,PA,19501-0356,Lancaster,(717) 484-4200,40.232558,-76.07869
COLUMBIA PUBLIC LIBRARY,24 SOUTH SIXTH ST,COLUMBIA,PA,17512-1599,Lancaster,(717) 684-2255,40.03459,-76.49736
EASTERN LANCASTER COUNTY LIB,11 CHESTNUT DR,NEW HOLLAND,PA,17557-9437,Lancaster,(717) 354-0525,40.10305,-76.07244
ELIZABETHTOWN PUBLIC LIBRARY,10 SOUTH MARKET STREET,ELIZABETHTOWN,PA,17022-2306,Lancaster,(717) 367-7467,40.15138,-76.60582
EPHRATA PUBLIC LIBRARY,550 SOUTH READING RD,EPHRATA,PA,17522-1834,Lancaster,(717) 738-9291,40.17421,-76.19647
LANCASTER PUBLIC LIBRARY - CITY,125 NORTH DUKE ST,Lancaster,PA,17602-2883,Lancaster,(717) 394-2651,40.040662,-76.303567
LANCASTER COUNTY BOOKMOBILE,"1866 COLONIAL VILLAGE LN, SUITE 107",LANCASTER,PA,17601-6727,Lancaster,(717) 207-0500,40.054387,-76.234989
LANCASTER PUBLIC LIBRARY EAST - LEOLA,46 HILLCREST AVE,LEOLA,PA,17540,Lancaster,(717) 656-7920,40.086593,-76.185198
LANCASTER PUBLIC LIBRARY WEST - MOUNTVILLE,2 COLLEGE AVE,MOUNTVILLE,PA,17554-1502,Lancaster,(717) 285-3231,40.039255,-76.42852
LIBRARY SYSTEM OF LANCASTER CO,"1866 Colonial Village Ln, Ste 107",Lancaster,PA,17601-6727,Lancaster,(717) 207-0500,40.053795,-76.234464
LITITZ PUBLIC LIBRARY,651 KISSEL HILL ROAD,LITITZ,PA,17543-7438,Lancaster,(717) 626-2255,40.147194,-76.294978
MANHEIM COMMUNITY LIBRARY,15 EAST HIGH ST,MANHEIM,PA,17545-1505,Lancaster,(717) 665-6700,40.16394,-76.39455
MANHEIM TOWNSHIP PUBLIC LIBRARY,595 GRANITE RUN DR,LANCASTER,PA,17601,Lancaster,(717) 560-6441,40.0778354,-76.3224288
MILANOF-SCHOCK LIBRARY,1184 ANDERSON FERRY RD.,MOUNT JOY,PA,17552-1426,Lancaster,(717) 653-1510,40.085999,-76.525174
MOORE MEMORIAL LIBRARY,W. Slokom Ave,CHRISTIANA,PA,17509-1202,Lancaster,(610) 593-6683,39.955088,-75.996569
PEQUEA VALLEY PUBLIC LIBRARY,3660 OLD PHILADELPHIA PIKE,INTERCOURSE,PA,17534-0617,Lancaster,(717) 768-3160,40.0375,-76.1054
QUARRYVILLE LIBRARY,357 BUCK ROAD,QUARRYVILLE,PA,17566-9703,Lancaster,(717) 786-1336,39.89285,-76.17721
SALISBURY TOWNSHIP BRANCH LIBRARY,"835 HOUSTON RUN DR, SUITE 220",GAP,PA,17527,Lancaster,(717) 442-3304,39.985901,-76.038022
STRASBURG-HEISLER LIBRARY,143 PRECISION AVE,STRASBURG,PA,17579-9608,Lancaster,(717) 687-8969,39.98527,-76.19105
ELLWOOD CITY AREA PUB LIBRARY,510 CRESCENT AVE,ELLWOOD,PA,16117-1944,Lawrence,(724) 758-6458,40.85731,-80.28773
F D CAMPBELL MEMORIAL LIBRARY,15 SOUTH MAIN STREET,BESSEMER,PA,16112-0666,Lawrence,(724) 667-7939,40.97339,-80.49378
LAWRENCE COUNTY BOOKMOBILE,207 E NORTH ST,NEW CASTLE,PA,16101-3665,Lawrence,(724) 658-6659,41.00173104,-80.3440395
NEW CASTLE PUBLIC LIBRARY,207 EAST NORTH ST,NEW CASTLE,PA,16101-3665,Lawrence,(724) 658-6659,41.00173104,-80.3440395
ANNVILLE FREE LIBRARY,216 E MAIN ST,ANNVILLE,PA,17003-1599,Lebanon,(717) 867-1802,40.32979,-76.51221
LEBANON COMMUNITY LIBRARY,125 N SEVENTH ST,LEBANON,PA,17046-5004,Lebanon,(717) 273-7624,40.3412,-76.4226879
MATTHEWS PUBLIC LIBRARY,102 WEST MAIN STREET,FREDERICKSBURG,PA,17026-0241,Lebanon,(717) 865-5523,40.44435,-76.43307
MYERSTOWN COMMUNITY LIBRARY,199 NORTH COLLEGE ST,MYERSTOWN,PA,17067-0246,Lebanon,(717) 866-2800,40.3783,-76.30628
PALMYRA PUBLIC LIBRARY,"50 Landings Dr, STE B",PALMYRA,PA,17078-2449,Lebanon,(717) 838-1347,40.30537,-76.59204
RICHLAND COMMUNITY LIBRARY,111 EAST MAIN STREET,RICHLAND,PA,17087-0089,Lebanon,(717) 866-4939,40.35756,-76.2562
ALLENTOWN PUBLIC LIBRARY,1210 HAMILTON ST,ALLENTOWN,PA,18101-4371,Lehigh,(610) 820-2400,40.59920946,-75.4821682
BETHLEHEM AREA PUBLIC LIBRARY,11 WEST CHURCH ST,BETHLEHEM,PA,18018-5888,Lehigh,(610) 867-3761,40.61848057,-75.37927866
COPLAY PUBLIC LIBRARY,49 SOUTH FIFTH ST,COPLAY,PA,18037-1398,Lehigh,(610) 262-7351,40.66991,-75.4934
EMMAUS PUBLIC LIBRARY,11 EAST MAIN ST,EMMAUS,PA,18049-4098,Lehigh,(610) 965-9284,40.54126,-75.4862
LOWER MACUNGIE LIBRARY,3450 BROOKSIDE ROAD,MACUNGIE,PA,18062-1428,Lehigh,(610) 966-6864,40.52156,-75.54713
PARKLAND COMMUNITY LIBRARY,4422 WALBERT AVE,ALLENTOWN,PA,18104-1619,Lehigh,(610) 398-1333,40.61121,-75.56635
PUBLIC LIBRARY OF CATASAUQUA,3rd and BRIDGE STS,CATASAUQUA,PA,18032-2510,Lehigh,(610) 264-4151,40.657,-75.4675
SLATINGTON LIBRARY INC,650 MAIN ST,SLATINGTON,PA,18080-1420,Lehigh,(610) 767-6461,40.754276,-75.260368
SOUTHERN LEHIGH PUBLIC LIBRARY,3200 Preston Lane,Center Valley,PA,18034,Lehigh,(610) 965-2364,40.5359812,-75.3885183
WHITEHALL TOWNSHIP PUB LIBRARY,3700 MECHANICSVILLE RD,WHITEHALL,PA,18052-3399,Lehigh,(610) 432-4339,40.65019,-75.50252
BACK MOUNTAIN MEMORIAL LIBRARY,96 HUNTSVILLE RD,DALLAS,PA,18612-1829,Luzerne,(570) 675-1182,41.33255,-75.96284
FREELAND BRANCH LIBRARY,515 FRONT ST,FREELAND,PA,18224,Luzerne,(570) 636-2125,41.018384,-75.894255
HAZLETON AREA PUBLIC LIBRARY,55 N CHURCH ST,HAZLETON,PA,18201-5893,Luzerne,(570) 454-2961,40.95617,-75.97629
HOYT LIBRARY,284 WYOMING AVE,KINGSTON,PA,18704-3597,Luzerne,(570) 287-2013,41.26241,-75.89601
LAFLIN PUBLIC LIBRARY,47 Laflin Road,Laflin,PA,18702,Luzerne,(570) 654-3323,41.2911655,-75.7967533
LUZERNE COUNTY LIBRARY SYSTEM,71 SOUTH FRANKLIN STREET,WILKES-BARRE,PA,18701-1287,Luzerne,(570) 823-0156,41.2459106,-75.8853635
LUZERNE COUNTY LIBRARY SYSTEM,71 SOUTH FRANKLIN STREET,WILKES-BARRE,PA,18701-1287,Luzerne,(570) 823-0156,41.2459106,-75.8853635
MARIAN SUTHERLAND KIRBY LIB,35 KIRBY AVENUE,MOUNTAINTOP,PA,18707-1214,Luzerne,(570) 474-9313,41.16218,-75.88534
MILL MEMORIAL LIBRARY,495 EAST MAIN ST,NANTICOKE,PA,18634-1897,Luzerne,(570) 735-3030,41.20579,-75.99547
NORTH BRANCH LIBRARY,235 GEORGE AVE,WILKES-BARRE,PA,18705,Luzerne,(570) 822-4660,41.258398,-75.843289
NUREMBURG BRANCH LIBRARY,45 Brush St,NUREMBURG,PA,18241,Luzerne,(570) 384-4101,40.939165,-76.17211
OSTERHOUT FREE LIBRARY,71 SOUTH FRANKLIN ST,WILKES-BARRE,PA,18701-1287,Luzerne,(570) 823-0156,41.24566,-75.88482
PITTSTON MEMORIAL LIBRARY,47 BROAD ST,PITTSTON,PA,18640-2563,Luzerne,(570) 654-9565,41.32192,-75.7885
PLAINS TOWNSHIP BRANCH LIBRARY,MUNICIPAL BLDG,PLAINS,PA,18705,Luzerne,(570) 824-1862,41.25839,-75.84328
PLYMOUTH PUBLIC LIBRARY,107 WEST MAIN ST,PLYMOUTH,PA,18651-2912,Luzerne,(570) 779-4775,41.24015,-75.94642
SOUTH BRANCH LIBRARY,2 AIRY ST,WILKES-BARRE,PA,18702,Luzerne,(570) 823-5544,41.232081,-75.893141
SOUTH SIDE LIBRARY BRANCH,15 KELAYRES RD,MCADOO,PA,18237,Luzerne,(570) 929-1120,40.893366,-75.998527
VALLEY BRANCH LIBRARY,211 MAIN ST,CONYNGHAM,PA,18219-0516,Luzerne,(570) 788-1339,40.989745,-76.055057
WEST PITTSTON LIBRARY,200 EXETER AVE,WEST PITTSTON,PA,18643-2441,Luzerne,(570) 654-9847,41.32997,-75.79513
WHITE HAVEN AREA COMMUNITY LIBRARY,99 Towanda St,White Haven,PA,18661,Luzerne,(570) 443-8776,41.0679744,-75.7735643
WILKES-BARRE,71 S Franklin St,Wilkes,PA,18701-1287,Luzerne,(570) 823-0156,41.2459106,-75.8853635
WYOMING FREE LIBRARY,358 WYOMING AVE,WYOMING,PA,18644-1822,Luzerne,(570) 693-1364,41.3108,-75.83816
DR WILLIAM B KONKLE MEM LIB,384 BROAD ST,MONTOURSVILLE,PA,17754-2206,Lycoming,(570) 368-1840,41.24939,-76.92507
HUGHESVILLE AREA PUB LIBRARY,3 SOUTH MAIN ST,HUGHESVILLE,PA,17737-1409,Lycoming,(570) 584-3762,41.24121,-76.72429
JAMES V. BROWN LIBRARY,19 EAST 4TH ST,WILLIAMSPORT,PA,17701-6301,Lycoming,(570) 326-0536,41.24257,-77.00143
JAMES V. BROWN LIBRARY Bookmobile,19 EAST 4TH ST,WILLIAMSPORT,PA,17701-6301,Lycoming,(570) 326-0536,41.2425554,-77.0014608
JERSEY SHORE PUBLIC LIBRARY,110 OLIVER STREET,JERSEY SHORE,PA,17740-1737,Lycoming,(570) 398-9891,41.20192,-77.27309
LYCOMING COUNTY LIBRARY SYSTEM,19 EAST 4TH ST,WILLIAMSPORT,PA,17701-6390,Lycoming,(570) 326-0536,41.2428,-77.001461
LYCOMING COUNTY MOBILE LIBRARY,19 EAST 4TH ST,WILLIAMSPORT,PA,17701-6390,Lycoming,(570) 326-0536,41.24257,-77.00143
MONTGOMERY AREA PUBLIC LIBRARY,1 SOUTH MAIN STREET,MONTGOMERY,PA,17752-1150,Lycoming,(570) 547-6212,41.1704,-76.87683
MUNCY PUBLIC LIBRARY,108 SOUTH MAIN ST,MUNCY,PA,17756-1341,Lycoming,(570) 546-5014,41.20376,-76.78611
NORTH CENTRAL,19 E 4th St,Williamsport,PA,17701-6390,Lycoming,(570) 326-0536,41.2425554,-77.0014608
BRADFORD AREA PUBLIC LIBRARY,67 W WASHINGTON ST,BRADFORD,PA,16701-1234,McKean,(814) 362-6527,41.95714,-78.65423
FRIENDS MEMORIAL LIBRARY,230 CHASE STREET,KANE,PA,16735-1317,McKean,(814) 837-7010,41.66,-78.80977
HAMLIN MEMORIAL LIBRARY,123 S MECHANIC ST,SMETHPORT,PA,16749-0422,McKean,(814) 887-9262,41.791,-78.5153
MOUNT JEWETT MEMORIAL LIBRARY,7 E. MAIN ST,MOUNT JEWETT,PA,16740-0407,McKean,(814) 778-5588,41.724204,-78.643751
SAMUEL W SMITH MEM PUB LIBRARY,201 E. MAPLE STREET,PORT ALLEGANY,PA,16743,McKean,(814) 642-9210,41.9627,-78.19608
GREENVILLE AREA PUBLIC LIBRARY,330 MAIN ST,GREENVILLE,PA,16125-2619,Mercer,(724) 588-5490,41.40762,-80.38072
GROVE CITY COMMUNITY LIBRARY,125 WEST MAIN ST,GROVE CITY,PA,16127-1221,Mercer,(724) 458-7320,41.157175,-80.087718
LAKEVIEW AREA PUBLIC LIBRARY,56 Lacock Street,Sandy Lake,PA,16145,Mercer,(724) 376-4217          ,41.3517852,-80.0799223
MERCER AREA LIBRARY,143 NORTH PITT ST,MERCER,PA,16137-1283,Mercer,(724) 662-4233,41.22785,-80.2381
SHENANGO VALLEY COM LIBRARY,11 N SHARPSVILLE AVE,SHARON,PA,16146-2107,Mercer,(724) 981-4360,41.232936,-80.504898
STEY NEVANT PUBLIC LIBRARY,1000 Roemer Blvd,Farrell,PA,16121-1899,Mercer,(724) 983-2714,41.2121627,-80.49652
BRADY-MENNO COMMUNITY LIBRARY,39 Water Street,Allensville,PA,17002,Mifflin,,40.537705,-77.8224067
KISHACOQUILLAS BRANCH LIBRARY,WALNUT ST,BELLEVILLE,PA,17004-0996,Mifflin,(717) 935-2880,40.5962,-77.7424
MIFFLIN COUNTY LIBRARY,123 NORTH WAYNE ST,LEWISTOWN,PA,17044-1794,Mifflin,(717) 242-2391,40.59789,-77.57738
ROTHROCK COMMUNITY LIBRARY,10 N. Queen Street,McVeytown,PA,17051,Mifflin,,40.4987114,-77.7430491
BARRETT FRIENDLY LIBRARY,6500 RT 191,Cresco,PA,18326-7380,Monroe,(570) 595-7171,41.19124,-75.260462
CLYMER LIBRARY ASSOCIATION,115 FIREHOUSE RD.,POCONO PINES,PA,18350-9705,Monroe,(570) 646-0826,41.1161,-75.4653
EASTERN MONROE PUBLIC LIBRARY,1002 NORTH 9TH ST,STROUDSBURG,PA,18360-1695,Monroe,(570) 421-0800,40.98997,-75.21481
EASTERN MONROE PUBLIC LIBRARY (BOOKMOBILE),1002 NORTH 9TH ST,STROUDSBURG,PA,18360-1695,Monroe,(570) 421-0800,40.989974,-75.214816
POCONO MOUNTAIN PUBLIC LIBRARY,5500 MEMORIAL BLVD,TOBYHANNA,PA,18466-8942,Monroe,(570) 894-8860,41.171863,-75.407548
POCONO TOWNSHIP BRANCH,Route 611,TANNERSVILLE,PA,18372-8942,Monroe,(570) 629-5858,41.037648,-75.305329
SMITHFIELD BRANCH LIBRARY,5200 MILFORD ROAD,EAST STROUDSBURG,PA,18302,Monroe,(570) 223-1881,40.9995386,-75.1812913
W POCONO COMMUNITY LIBRARY,131 PILGRIM WAY,BRODHEADSVILLE,PA,18322-0318,Monroe,(570) 992-7934,40.937,-75.4125
ABINGTON TWP PUBLIC LIBRARY,1030 OLD YORK RD,ABINGTON,PA,19001-4534,Montgomery,(215) 885-5180,40.111808,-75.123469
AMBLER BRANCH LIBRARY,209 RACE ST,AMBLER,PA,19002-4485,Montgomery,(215) 646-1072,40.156158,-75.219416
ARDMORE FREE LIBRARY,108 ARDMORE AVENUE,ARDMORE,PA,19003-1399,Montgomery,(610) 645-5187,40.00751035,-75.29600412
BALA CYNWYD MEMORIAL LIBRARY,131 OLD LANCASTER ROAD,BALA CYNWYD,PA,19004-3095,Montgomery,(215) 664-1196,40.00196923,-75.23912787
BELMONT HILLS LIBRARY,120 MARY WATERSFORD RD,BALA CYNWYD,PA,19004-2038,Montgomery,(215) 664-8427,40.0138,-75.23
CHELTENHAM TWNSHP LIB SYSTEM,215 SOUTH KESWICK AVE,GLENSIDE,PA,19038-4420,Montgomery,(215) 885-0457,40.0982697,-75.1526756
CONSHOHOCKEN FREE LIBRARY,301 FAYETTE ST,CONSHOHOCKEN,PA,19428-1901,Montgomery,(610) 825-1656,40.075309,-75.304527
EAST CHELTENHAM FREE LIB,400 MYRTLE AVENUE,CHELTENHAM,PA,19012-2038,Montgomery,(215) 379-2077,40.063011,-75.095018
ELKINS PARK FREE LIBRARY,563 EAST CHURCH ROAD,ELKINS PARK,PA,19027-2499,Montgomery,(215) 635-5000,40.07571,-75.126119
FR LIB OF SPRINGFIELD TWNSHP,8900 HAWTHORNE LN.,WYNDMOOR,PA,19038,Montgomery,(215) 836-5300,40.098146,-75.195057
FREEPORT AREA LIBRARY ASSOCIATION,428 Market St.,Freeport,PA,16229,Montgomery,(724) 295-3616          ,40.6725,-79.685158
GLADWYNE FREE LIBRARY,362 RIGHTERS MILL RD,GLAYWYNE,PA,19035-1587,Montgomery,(215) 642-3957,40.037807,-75.280579
GLENSIDE FREE LIBRARY,215 S KESWICK AVE,GLENSIDE,PA,19038-4420,Montgomery,(215) 885-0457,40.098101,-75.152294
HORSHAM TOWNSHIP LIBRARY,435 BABYLON ROAD,HORSHAM,PA,19044-1224,Montgomery,(215) 443-2609,40.20027,-75.16927
HUNTINGDON VALLEY LIBRARY,625 RED LION RD,HUNTINGDON VALLEY,PA,19006-6297,Montgomery,(215) 947-5138,40.12422,-75.0613
INDIAN VALLEY PUBLIC LIBRARY,100 EAST CHURCH AVE,TELFORD,PA,18969-1791,Montgomery,(215) 723-9109,40.32565,-75.34109
JENKINTOWN LIBRARY,460 YORK ROAD,JENKINTOWN,PA,19046-2829,Montgomery,(215) 884-0593,40.0985903,-75.125486
LA MOTT FREE LIBRARY,7420 SYCAMORE AVE,LA MOTT,PA,19027-1005,Montgomery,(215) 635-4419,40.067192,-75.141086
LANSDALE PUBLIC LIBRARY,301 VINE STREET,LANSDALE,PA,19446-3690,Montgomery,(215) 855-3228,39.93622,-75.2718
LOWER MERION LIBRARY SYSTEM,75 EAST LANCASTER AVE,ARDMORE,PA,19003-2388,Montgomery,(610) 645-6110,40.0067411,-75.2883626
LOWER PROVIDENCE COM LIBRARY,50 PARKLANE DR,EAGLEVILLE,PA,19403-1171,Montgomery,(610) 666-6640,40.16025,-75.40753
LUDINGTON PUBLIC LIBRARY,5 S. BRYN MAWR AVENUE,BRYN MAWR,PA,19010-3471,Montgomery,(215) 525-1776,40.0209555,-75.31811893
MONT CO-NORRISTOWN PUB LIB,1001 POWELL ST,NORRISTOWN,PA,19401-3817,Montgomery,(610) 278-5100,40.1218759,-75.3403799
MONT CO-NORRISTOWN PUB LIB (BOOKMOBILE #6),1001 POWELL ST,NORRISTOWN,PA,19401-3817,Montgomery,(610) 278-5100,40.120508,-75.340327
MONT CO-NORRISTOWN PUB LIB (BOOKMOBILE #7),1001 POWELL ST,NORRISTOWN,PA,19401-3817,Montgomery,(215) 278-5100,40.1205,-75.34032
MONT CO-NORRISTOWN PUB LIB (Books-Go-Round),1001 POWELL ST,NORRISTOWN,PA,19401-3817,Montgomery,(215) 278-5100,40.120508,-75.340327
MONT CO-NORRISTOWN PUB LIB (Words-On-Wheels),1001 POWELL ST,NORRISTOWN,PA,19401-3817,Montgomery,(215) 278-5100,40.120508,-75.340327
NARBERTH COMMUNITY LIBRARY,80 WINDSOR AVENUE,NARBERTH,PA,19072-2296,Montgomery,(610) 664-2878,40.00564,-75.26495
NORTH WALES AREA LIBRARY,201 SUMMIT ST,NORTH WALES,PA,19454-3223,Montgomery,(215) 699-5410,40.209407,-75.27282
PENN WYNNE LIBRARY,130 OVERBROOK PARKWAY,PHILADELPHIA,PA,19151-3211,Montgomery,(215) 642-7844,39.988363,-75.249874
"PERKIOMEN VALLEY LIBRARY, INC",290 SECOND ST,SCHWENKSVILLE,PA,19473,Montgomery,(610) 287-8360,40.254724,-75.465135
POTTSTOWN REGIONAL PUBLIC LIBRARY,500 HIGH STREET,POTTSTOWN,PA,19464-5656,Montgomery,(610) 970-6551,40.24449,-75.64202
ROSLYN BRANCH LIBRARY,2412 AVONDALE AVE,ROSLYN,PA,19001-4292,Montgomery,(215) 886-9818,40.123746,-75.134842
ROYERSFORD FREE PUBLIC LIBRARY,200 S FOURTH ST,ROYERSFORD,PA,19468-2597,Montgomery,(610) 948-7277,40.183502,-75.53683
UNION LIB COMPANY OF HATBORO,243 SOUTH YORK RD,HATBORO,PA,19040-3429,Montgomery,(215) 672-1420,40.17349,-75.10726
UPPER DUBLIN PUBLIC LIBRARY,805 LOCH ALSH AVE,FORT WASHINGTON,PA,19034-1696,Montgomery,(215) 628-8744,40.153403,-75.201453
UPPER MERION TOWNSHIP LIBRARY,175 W VALLEY FORGE RD,KING OF PRUSSIA,PA,19406-1800,Montgomery,(610) 265-4805,40.1023,-75.37241
UPPER MORELAND FR PUB LIBRARY,109 PARK AVE,WILLOW GROVE,PA,19090-3277,Montgomery,(215) 659-0741,40.14369,-75.1178
UPPER PERKIOMEN VALLEY LIBRARY,350 MAIN ST,RED HILL,PA,18076-1316,Montgomery,(215) 679-2020,40.374503,-75.482045
WILLIAM JEANES MEM LIBRARY,4051 JOSHUA RD,LAFAYETTE HILL,PA,19444-1400,Montgomery,(610) 828-0441,40.09633,-75.25759
WISSAHICKON VALLEY PUB LIBRARY,650 SKIPPACK PIKE,BLUE BELL,PA,19422-1710,Montgomery,(215) 643-1320,40.1575,-75.2796
THOMAS BEAVER FREE LIBRARY,317 FERRY STREET,DANVILLE,PA,17821-1939,Montour,(570) 275-4180,40.96017048,-76.617653
BANGOR PUBLIC LIBRARY,39 SOUTH MAIN ST,BANGOR,PA,18013-2645,Northampton,(610) 588-4136,40.866546,-75.204897
BETHLEHEM AREA PUBLIC LIBRARY (BOOKMOBILE),11 WEST CHURCH ST,BETHLEHEM,PA,18018-5888,Northampton,(610) 867-3761,40.618698,-75.379224
BLUE MOUNTAIN COMMUNITY LIBRARY,216 South Robinson Ave,Pen Argyl,PA,18072,Northampton,(610) 863-3029,40.867018,-75.25375
EASTON AREA PUBLIC LIBRARY,515 Church St,Easton,PA,18042-3587,Northampton,(610) 258-2917,40.692168,-75.21383
HELLERTOWN AREA LIBRARY,409 CONSTITUTION AVE,HELLERTOWN,PA,18055-1998,Northampton,(610) 838-8381,40.57672,-75.33148
MARY MEUSER MEMORIAL LIBRARY,1803 NORTHAMPTON ST,EASTON,PA,18042-3183,Northampton,(610) 258-3040,40.69139,-75.20452
MEM LIB OF NAZARETH & VICINITY,295 E CENTER ST,NAZARETH,PA,18064-2298,Northampton,(610) 759-4932,40.74257,-75.306
NORTHAMPTON AREA PUB LIBRARY,GEORGE SCHISLER BLDG,NORTHAMPTON,PA,18067-1597,Northampton,(610) 262-7537,40.718,-75.4794
PALMER LIBRARY,1 WELLER PLACE,EASTON,PA,18042,Northampton,(610) 258-7492,40.6369,-75.2272
SOUTH SIDE BRANCH LIBRARY,400 WEBSTER ST,BETHLEHEM,PA,18015,Northampton,(610) 867-7852,40.610498,-75.375924
DEGENSTEIN COMMUNITY LIBRARY,40 SOUTH FIFTH STREET,SUNBURY,PA,17801-2840,Northumberland,(570) 286-2461,40.8604,-76.78956
MILTON PUBLIC LIBRARY,541 BROADWAY ST,MILTON,PA,17847,Northumberland,(570) 742-7111,41.01973,-76.85537
MONTGOMERY HSE/WARRIOR RUN LIB,20 CHURCH ST,MCEWENSVILLE,PA,17749-0005,Northumberland,(570) 538-1381,41.07271,-76.81747
MOUNT CARMEL PUBLIC LIBRARY,30 SOUTH OAK ST,MOUNT CARMEL,PA,17851-1201,Northumberland,(570) 339-0703,40.79648,-76.41341
PRIESTLEY FORSYTH MEM LIBRARY,100 KING ST,NORTHUMBERLAND,PA,17857-1670,Northumberland,(570) 473-8201,40.88986,-76.79455
RALPHO TOWNSHIP PUBLIC LIBRARY,32B MARKET ST,ELYSBURG,PA,17824-0315,Northumberland,(570) 672-9449,40.8606,-76.551
SHAMOKIN & COAL TWP PUB LIB,210 EAST INDEPENDENCE ST,SHAMOKIN,PA,17872-6888,Northumberland,(570) 648-3202,40.79205,-76.55368
BLOOMFIELD PUBLIC LIBRARY,BOROUGH BLDG,NEW BLOOMFIELD,PA,17068-0558,Perry,(717) 582-7426,40.4189,-77.1972
COMMUNITY LIB OF W PERRY CO,104 E. MAIN ST.,BLAIN,PA,17006-0056,Perry,(717) 536-3761,40.3145,-77.5067
MARYSVILLE RYE LIB ASSOCIATION,198 OVERCREST ROAD,MARYSVILLE,PA,17053-1157,Perry,(717) 957-2851,40.34031,-76.93852
NEWPORT PUBLIC LIBRARY,316 NORTH FOURTH ST,NEWPORT,PA,17074-1203,Perry,(717) 567-6860,40.47989,-77.1354
Andorra Branch,705 E CATHEDRAL RD,Philadelphia,PA,19128-2106,Philadelphia,(215) 685-2552,40.064104,-75.239471
Blanche A. Nixon/Cobbs Creek Branch,5800 COBBS CREEK PARKWAY,Philadelphia,PA,19143-3036,Philadelphia,(215) 685-1973,39.945866,-75.240266
Bushrod Branch,6304 CASTOR AVE,Philadelphia,PA,19149-2731,Philadelphia,(215) 685-1471,40.038228,-75.078597
Bustleton Branch,10199 BUSTLETON AVE,Philadelphia,PA,19116-3718,Philadelphia,(215) 685-0472,40.108254,-75.026336
Cecil B. Moore Branch,2320 W CECILE B MOORE AVE,Philadelphia,PA,19121-2927,Philadelphia,(215) 685-2766,39.982,-75.1785
Charles L. Durham Branch,3320 HAVERFORD AVE,Philadelphia,PA,19104-2021,Philadelphia,(215) 685-7436,39.964181,-75.190458
Charles Santore Branch,932 S 7th St,Philadelphia,PA,19147-2932,Philadelphia,(215) 686-1766,39.937395,-75.154969
Chestnut Hill Branch,8711 GERMANTOWN AVE,Philadelphia,PA,19118-2716,Philadelphia,(215) 685-9290,40.077255,-75.208755
David Cohen Ogontz Branch,6017 OGONTZ AVE,Philadelphia,PA,19141,Philadelphia,(215) 685-3566,40.046762,-75.150895
Eastwick Branch,2851 ISLAND AVE,Philadelphia,PA,19153-2314,Philadelphia,(215) 685-4170,39.907382,-75.241368
Falls of Schuylkill Branch,3501 MIDVALE AVE,Philadelphia,PA,19129-1633,Philadelphia,(215) 685-2093,40.014201,-75.191874
Fishtown Community Branch,1217 E MONTGOMERY AVE,Philadelphia,PA,19125-3445,Philadelphia,(215) 685-9990,39.971787,-75.127347
Fox Chase Branch,501 RHAWN ST,Philadelphia,PA,19111-2504,Philadelphia,(215) 685-0547,40.07656,-75.082501
Frankford Branch,4634 FRANKFORD AVE,Philadelphia,PA,19124-5804,Philadelphia,(215) 685-1473,40.015615,-75.084747
Fumo Family Branch,2437 S BROAD ST,Philadelphia,PA,19148-3508,Philadelphia,(215) 685-1758,39.91973614,-75.17042255
George Institute Branch,1461 N 52ND ST,Philadelphia,PA,19131-4435,Philadelphia,(215) 685-0177,39.976134,-75.226715
Greater Olney Branch,5501 N 5TH ST,Philadelphia,PA,19120-2805,Philadelphia,(215) 685-2846,40.034744,-75.130879
Haddington Branch,446 N 65TH ST,Philadelphia,PA,19151-4003,Philadelphia,(215) 685-1970,39.970048,-75.249346
Haverford Branch,5543 HAVERFORD AVE,Philadelphia,PA,19139-1432,Philadelphia,(215) 685-1964,39.967325,-75.231355
Holmesburg Branch,7810 FRANKFORD AVE,Philadelphia,PA,19136-3013,Philadelphia,(215) 685-8756,40.040293,-75.031184
Independence Branch,18 S 7TH ST,Philadelphia,PA,19106-2314,Philadelphia,(215) 685-1633,39.95034,-75.15213
Joseph E. Coleman Northwest Regional Library,68 W CHELTEN AVE,Philadelphia,PA,19144-2795,Philadelphia,(215) 685-2150,40.034635,-75.175942
Katharine Drexel Branch,11099 KNIGHTS RD,Philadelphia,PA,19154-3516,Philadelphia,(215) 685-9383,40.081476,-74.976277
Kensington Branch,104 W DAUPHIN ST,Philadelphia,PA,19133-3701,Philadelphia,(215) 685-9996,39.984832,-75.132556
Kingsessing Branch,1201 S 51ST ST,Philadelphia,PA,19143-4353,Philadelphia,(215) 685-2690,39.942406,-75.219037
Lawncrest Branch,6098 RISING SUN AVE,Philadelphia,PA,19111-6009,Philadelphia,(215) 685-0549,40.046056,-75.099564
Library for the Blind and Physically Handicapped,919 WALNUT ST,Philadelphia,PA,19107-5289,Philadelphia,(215) 683-3213,39.948394,-75.156646
Lillian Marrero Branch,601 W Lehigh Ave,Philadelphia,PA,19133-2228,Philadelphia,(215) 685-9794,39.992343,-75.142173
Logan Branch,1333 WAGNER AVE,Philadelphia,PA,19141-2916,Philadelphia,(215) 685-9156,40.031457,-75.145342
Lovett Branch,6945 GERMANTOWN AVE,Philadelphia,PA,19119-2189,Philadelphia,(215) 685-2095,40.05605,-75.187614
Lucien E. Blackwell West Philadelphia Regional Library,125 S 52ND ST,Philadelphia,PA,19139-3408,Philadelphia,(215) 685-7424,39.957714,-75.225351
McPherson Square Branch,601 E INDIANA AVE,Philadelphia,PA,19134-3042,Philadelphia,(215) 685-9995,39.994168,-75.119989
Nicetown-Tioga Branch,3720 N BROAD ST,Philadelphia,PA,19140-3608,Philadelphia,(215) 685-9790,40.009003,-75.151307
Northeast Regional Library,2228 COTTMAN AVE,Philadelphia,PA,19149-1297,Philadelphia,(215) 685-0522,40.048987,-75.062095
Oak Lane Branch,6614 NORTH 12TH ST,Philadelphia,PA,19126-3299,Philadelphia,(215) 685-2848,40.053362,-75.137714
Overbrook Park Branch,7422 HAVERFORD AVE,Philadelphia,PA,19151-2995,Philadelphia,(215) 685-0182,39.976775,-75.264753
Parkway Central Library,1901 Vine Street,Philadelphia,PA,19103-1189,Philadelphia,(215) 686-5300,39.95909,-75.17034
Paschalville Branch,6942 WOODLAND AVE,Philadelphia,PA,19142-1823,Philadelphia,(215) 685-2662,39.921133,-75.240633
PHILADELPHIA,1901 Vine St,Philadelphia,PA,19103-1189,Philadelphia,(215) 686-5300,39.959302,-75.171102
Philadelphia City Institute,1905 LOCUST ST,Philadelphia,PA,19103-5730,Philadelphia,(215) 685-6621,39.949259,-75.173039
Queen Memorial Library,1201 SOUTH 23RD ST,Philadelphia,PA,19146-4316,Philadelphia,(215) 685-1899,39.938077,-75.181838
Ramonita de Rodriguez Branch,600 W GIRARD AVE,Philadelphia,PA,19123-1311,Philadelphia,(215) 686-1768,39.97038,-75.146543
Richmond Branch,2987 ALMOND ST,Philadelphia,PA,19134-4955,Philadelphia,(215) 685-9992,39.982963,-75.108653
Roxborough Branch,6245 RIDGE AVE,Philadelphia,PA,19128-2630,Philadelphia,(215) 685-2550,40.03625,-75.218077
South Philadelphia Branch,1700 S BROAD ST,Philadelphia,PA,19145-2392,Philadelphia,(215) 685-1866,39.929256,-75.168689
Tacony Branch,6742 TORRESDALE AVE,Philadelphia,PA,19135-2416,Philadelphia,(215) 685-8755,40.024643,-75.045766
"Thomas F. Donatucci, Sr., Branch",1935 Shunk St,Philadelphia,PA,19145-4234,Philadelphia,(215) 685-1755,39.9193,-75.179884
Torresdale Branch,3079 HOLME AVE,Philadelphia,PA,19136-1101,Philadelphia,(215) 685-0494,40.056589,-75.020345
Wadsworth Branch,1500 WADSWORTH AVE,Philadelphia,PA,19150-1699,Philadelphia,(215) 685-9293,40.078945,-75.174082
Walnut Street West,201 S 40th  ST,Philadelphia,PA,19104-3609,Philadelphia,(215) 685-7671,39.953855,-75.20255005
Welsh Road Branch,9233 REAR ROOSEVELT BLVD,Philadelphia,PA,19114-2205,Philadelphia,(215) 685-0498,40.07595995,-75.03197336
West Oak Lane Branch,2000 WASHINGTON LN,Philadelphia,PA,19138-1344,Philadelphia,(215) 685-2843,40.066956,-75.158293
Whitman Branch,200 SNYDER AVE,Philadelphia,PA,19148-2620,Philadelphia,(215) 685-1754,39.921819,-75.149916
Widener Branch,2808 W LEHIGH AVE,Philadelphia,PA,19132-3296,Philadelphia,(215) 685-9799,39.99670424,-75.1772697
Wynnefield Branch,5325 OVERBROOK AVE,Philadelphia,PA,19131-1498,Philadelphia,(215) 685-0298,39.994954,-75.233
Wyoming Branch,231 E WYOMING AVE,Philadelphia,PA,19120-4439,Philadelphia,(215) 685-9158,40.021191,-75.121402
DELAWARE TOWNSHIP LIBRARY,106 Connors Way,Dingmans Ferry,PA,18328,Pike,(570) 828-2781,41.2286852,-74.9910112
DINGMAN TOWNSHIP LIBRARY,100 Bond Court St,DINGMAN TWP,PA,18328-0194,Pike,(570) 296-3130,41.2291,-75.0127
PIKE COUNTY PUBLIC LIBRARY,201 BROAD STREET,MILFORD,PA,18337-1398,Pike,(570) 296-8211,41.32203,-74.80346
COUDERSPORT PUBLIC LIBRARY,502 PARK AVE,COUDERSPORT,PA,16915-1672,Potter,(814) 274-9382,41.77247,-78.01437
GALETON PUBLIC LIBRARY,3 W MAIN ST,GALETON,PA,16922-1013,Potter,(814) 435-2321,41.735716,-77.642801
GENESEE AREA LIBRARY,301 MAIN STREET,GENESEE,PA,16923-0135,Potter,(814) 228-3328,41.99144,-77.87025
OSWAYO VALLEY MEMORIAL LIBRARY,103 NORTH PLEASANT STREET,SHINGLEHOUSE,PA,16748-9720,Potter,(814) 697-6691,41.962022,-78.191581
POTTER-TIOGA COUNTY LIB SYS,502 PARK AVE,COUDERSPORT,PA,16915-1672,Potter,(814) 274-7422,41.7723119,-78.0142416
POTTER-TIOGA COUNTY LIB SYS,502 PARK AVE,COUDERSPORT,PA,16915-1672,Potter,(814) 274-7422,41.7723119,-78.0142416
ULYSSES LIBRARY,401 NORTH MAIN ST,ULYSSES,PA,16948-0316,Potter,(814) 848-7226,41.90538,-77.76214
ASHLAND PUBLIC LIBRARY,1229 CENTRE ST,ASHLAND,PA,17921-1207,Schuylkill,(570) 875-3175,40.78153,-76.34632
FRACKVILLE FREE PUBLIC LIBRARY,56 NORTH LEHIGH AVE,FRACKVILLE,PA,17931-1424,Schuylkill,(570) 874-3382,40.78591,-76.23169
MAHANOY CITY PUBLIC LIBRARY,17-19 WEST MAHANOY AVE,MAHANOY CITY,PA,17948-2729,Schuylkill,(570) 773-1610,40.809808,-76.14949
MINERSVILLE PUBLIC LIBRARY,220 S FOURTH ST,MINERSVILLE,PA,17954-1645,Schuylkill,(570) 544-5196,40.69069,-76.265
ORWIGSBURG AREA FR PUB LIBRARY,216 WEST INDEPENDENCE ST.,ORWIGSBURG,PA,17961,Schuylkill,(570) 366-1638,40.65435058,-76.10334098
PORT CARBON PUBLIC LIBRARY,111 PIKE ST,PORT CARBON,PA,17965-1814,Schuylkill,(570) 622-6115,40.69547,-76.16715
POTTSVILLE FREE PUBLIC LIBRARY,215 W MARKET ST,POTTSVILLE,PA,17901-4304,Schuylkill,(570) 622-8880,40.685,-76.1969
RINGTOWN AREA LIBRARY,132 W. MAIN STREET,RINGTOWN,PA,17967-9538,Schuylkill,(570) 889-5503,40.8516,-76.2497
SCHUYLKILL HAVEN FR PUB LIB,104 SAINT JOHN ST,SCHUYLKILL HAVEN,PA,17972-1614,Schuylkill,(570) 385-0542,40.62826,-76.17127
SHENANDOAH AREA FR PUB LIBRARY,15 WEST WASHINGTON STREET,SHENANDOAH,PA,17976-1708,Schuylkill,(570) 462-9829,40.82345,-76.20215
TAMAQUA PUBLIC LIBRARY,30 SOUTH RAILROAD ST,TAMAQUA,PA,18252-1927,Schuylkill,(570) 668-4660,40.79712,-75.97026
TOWER-PORTER COMMUNITY LIBRARY,230 E GRAND AVE,TOWER CITY,PA,17980-1124,Schuylkill,(717) 647-4900,40.58866,-76.55681
TREMONT AREA FR PUBLIC LIBRARY,19 NORTH PINE STREET,TREMONT,PA,17981-0054,Schuylkill,(570) 695-3325,40.62859,-76.39041
TRI VALLEY FREE PUBLIC LIBRARY,633 EAST MAIN ST,HEGINS,PA,17938-0557,Schuylkill,(570) 682-8922,40.651061,-76.502046
BEAVERTOWN LIBRARY,111 W WALNUT ST,BEAVERTOWN,PA,17813-9730,Snyder,(570) 658-3437,40.75466,-77.170182
MCCLURE COMMUNITY LIBRARY,P O BOX 370,MCCLURE,PA,17841-0370,Snyder,(570) 658-7700,40.7125,-77.3707
MIDDLEBURG COMMUNITY LIBRARY,13 N MAIN ST,MIDDLEBURG,PA,17842-9565,Snyder,(570) 837-5931,40.792575,-77.04601
RUDY GELNETT MEMORIAL LIBRARY,1 NORTH HIGH ST,SELINSGROVE,PA,17870-1599,Snyder,(570) 374-7163,40.79959,-76.86336
MARY S BIESECKER PUB LIBRARY,230 S ROSINA AVE,SOMERSET,PA,15501-1937,Somerset,(814) 445-4011,40.007123,-79.082837
MEYERSDALE PUBLIC LIBRARY,210 CENTER,MEYERSDALE,PA,15552-1323,Somerset,(814) 634-0512,39.815287,-79.025747
Somerset County  Federated Library System,"6022 GLADES PIKE, SUITE 120",SOMERSET,PA,15501-4300,Somerset,(814) 445-2556,40.0014,-79.0269
SOMERSET COUNTY BOOKMOBILE,"6022 GLADES PIKE, SUITE 120",SOMERSET,PA,15501-4300,Somerset,(814) 445-2556,39.99927,-79.02412
SOMERSET COUNTY BOOKMOBILE,"6022 GLADES PIKE, SUITE 120",SOMERSET,PA,15501-4300,Somerset,(814) 445-2556,40.000065,-79.026838
SOMERSET COUNTY LIBRARY CONEMAUGH BRANCH,120 WHISTLER ST,HOLLSOPPLE,PA,15935-0507,Somerset,(814) 479-2542,40.208432,-78.928356
TURKEYFOOT LENDING LIBRARY,600 Logan Place,Confluence,PA,15424,Somerset,(814) 395-5415,39.811498,-79.3589889
WINDBER PUBLIC LIBRARY INC,1909 GRAHAM AVE,WINDBER,PA,15963-2011,Somerset,(814) 467-4950,40.23302,-78.82747
SULLIVAN COUNTY LIBRARY,216 CENTER STREET,DUSHORE,PA,18614-0309,Sullivan,(570) 928-9352,41.52312,-76.40246
FOREST CITY LIBRARY,531 MAIN ST,FOREST CITY,PA,18421-1421,Susquehanna,(570) 785-5590,41.656739,-75.465627
HALLSTEAD PUBLIC LIBRARY,135 FRANKLIN AVE,HALLSTEAD,PA,18822-0476,Susquehanna,(570) 879-2227,41.961802,-75.744511
PRATT MEMORIAL LIBRARY,247 MAIN ST,NEW MILFORD,PA,18834-0407,Susquehanna,(570) 465-3098,41.87473,-75.72722
SUS CO HIST SOC & FR LIB,458 HIGH SCHOOL RD,MONTROSE,PA,18801,Susquehanna,(570) 278-1881,41.8397234,-75.8468906
SUSQUEHANNA FREE LIBRARY,286 ERIE BLVD,SUSQUEHANNA,PA,18847-1209,Susquehanna,(570) 853-4106,41.944087,-75.600419
BLOSSBURG MEMORIAL LIBRARY,307 MAIN ST,BLOSSBURG,PA,16912-1111,Tioga,(570) 638-2197,41.67572,-77.06386
ELKLAND AREA COMMUNITY LIBRARY,110 E PARKWAY AVE,ELKLAND,PA,16920-1338,Tioga,(814) 258-7576,41.991634,-77.311008
KNOXVILLE PUBLIC LIBRARY,112 E MAIN ST.,KNOXVILLE,PA,16928-0277,Tioga,(814) 326-4448,41.95685,-77.43905
MANSFIELD FREE PUBLIC LIBRARY,71 NORTH MAIN ST,MANSFIELD,PA,16933-1303,Tioga,(570) 662-3850,41.80901,-77.07857
THE GREEN FREE LIBRARY,134 MAIN ST,WELLSBORO,PA,16901-1489,Tioga,(570) 724-4876,41.74558,-77.30461
WESTFIELD PUBLIC LIBRARY,147 MAPLE ST,WESTFIELD,PA,16950-1616,Tioga,(814) 367-5411,41.91846,-77.53769
JANE & ANNETTE HERR MEM LIB,500 MARKET STREET,MIFFLINBURG,PA,17844-1251,Union,(570) 966-0831,40.91639,-77.04835
PUBLIC LIBRARY FOR UNION CO,255 REITZ BLVD,LEWISBURG,PA,17837-9211,Union,(570) 523-1172,40.96201,-76.91083
UNION COUNTY LIBRARY SYSTEM,255 Reitz Boulevard,LEWISBURG,PA,17837-9211,Union,(570) 523-1172,40.961704,-76.911722
UNION COUNTY LIBRARY SYSTEM,255 Reitz Boulevard,LEWISBURG,PA,17837-9211,Union,(570) 523-1172,40.961704,-76.911722
WEST END LIBRARY,1724 STATE ROUTE 235,LAURELTON,PA,17835-0111,Union,(570) 922-4773,40.9474,-77.2014
COOPERSTOWN PUBLIC LIBRARY,182 N. MAIN STREET,COOPERSTOWN,PA,16317-0264,Venango,(814) 374-4605,41.5010438,-79.8732368
FRANKLIN PUBLIC LIBRARY,421 12TH ST,FRANKLIN,PA,16323-1205,Venango,(814) 432-5062,41.3964616,-79.8284327
OIL CITY LIBRARY,2 CENTRAL AVE,OIL CITY,PA,16301-2734,Venango,(814) 678-3071,41.42874,-79.71092
OIL CREEK,2 Central Ave,Oil City,PA,16301-2764,Venango,(814) 678-3054,41.428926,-79.711499
SENECA,205 Market St,Warren,PA,16365-2377,Warren,(814) 723-4650,41.845839,-79.146191
SHEFFIELD TOWNSHIP LIBRARY,20 LEATHER ST,SHEFFIELD,PA,16347-0607,Warren,(814) 968-3439,41.70198,-79.03296
SUGAR GROVE FREE LIBRARY,22 HARMON STREET,SUGAR GROVE,PA,16350-0313,Warren,(814) 489-7872,41.9393,-79.3185
"TIDIOUTE LIBRARY ASSOCIATION, INC.",197 MAIN STREET,TIDIOUTE,PA,16351-1152,Warren,(814) 484-3581,41.683301,-79.407423
WARREN LIBRARY ASSOCIATION,205 MARKET ST,WARREN,PA,16365-2377,Warren,(814) 723-4650,41.84524,-79.14531
YOUNGSVILLE PUBLIC LIBRARY,100 BROAD STREET,YOUNGSVILLE,PA,16371-1446,Warren,(814) 563-7670,41.856,-79.3283
AVELLA AREA LIBRARY CENTER,11 SCHOOL  COURT,AVELLA,PA,15312-0547,Washington,(724) 587-5688,40.2708,-80.4485
BENTLEYVILLE PUBLIC LIBRARY,931 MAIN ST,BENTLEYVILLE,PA,15314-1119,Washington,(724) 239-5122,40.12169,-80.00562
BURGETTSTOWN COMMUNITY LIBRARY,2 KERR ST,BURGETTSTOWN,PA,15021-1127,Washington,(724) 947-9780,40.37908,-80.38938
CALIFORNIA PUBLIC LIBRARY,100 WOOD STREET,CALIFORNIA,PA,15419-1068,Washington,(724) 938-2907,40.068249,-79.889481
CALIFORNIA PUBLIC LIBRARY (BOOKMOBILE),100 WOOD ST,CALIFORNIA,PA,15419-1068,Washington,(724) 938-2907,40.06824,-79.88948
CHARTIERS-HOUSTON COM LIBRARY,730 WEST GRANT ST,HOUSTON,PA,15342-1334,Washington,(724) 745-4300,40.24212,-80.21474
CITIZENS LIBRARY,55 SOUTH COLLEGE ST,WASHINGTON,PA,15301-4826,Washington,(724) 222-2400,40.170259,-80.242451
DONORA PUBLIC LIBRARY,510 MELDON AVE,DONORA,PA,15033-1333,Washington,(724) 379-7940,40.176247,-79.85554
FREDERICKTOWN AREA PUB LIBRARY,38 WATER ST.,FREDERICKTOWN,PA,15333-0625,Washington,(724) 377-0017,40.00068,-79.99678
GREATER CANONSBURG PUB LIBRARY,35 N Jefferson Av,CANONSBURG,PA,15317-1312,Washington,(724) 745-1308,40.2589,-80.18524
HERITAGE PUBLIC LIBRARY,52 FOURTH ST,MCDONALD,PA,15057-1166,Washington,(724) 926-8400,40.3662,-80.2739
JOHN K TENER LIBRARY,638 FALLOWFIELD AVE,CHARLEROI,PA,15022-1996,Washington,(724) 483-8282,40.13933,-79.89973
MARIANNA COMMUNITY PUBLIC LIB,JEFFERSON AND BROAD,MARIANNA,PA,15345-0457,Washington,(724) 267-3888,40.02152,-80.08854
MONONGAHELA AREA LIBRARY,813 WEST MAIN ST,MONONGAHELA,PA,15063-2815,Washington,(724) 258-5409,40.2056,-79.93284
PETERS TOWNSHIP PUBLIC LIBRARY,616 EAST MCMURRAY RD,MCMURRAY,PA,15317-3495,Washington,(724) 941-9430,40.2811,-80.08154
WASHINGTON COUNTY LIBRARY SYSTEM,55 S College St.,Washington,PA,15301-4826,Washington,(724) 222-2400,40.16995418,-80.24287462
BETHANY PUBLIC LIBRARY,8 COURT STREET,BETHANY,PA,18431-5910,Wayne,(570) 253-4349,41.57121,-75.25265
HAMLIN COMMUNITY LIBRARY,518 Easton Turnpike,Hamlin,PA,18427-0098,Wayne,(570) 689-0903,41.3955,-75.3503
HAWLEY LIBRARY,103 MAIN ST,HAWLEY,PA,18428-1325,Wayne,(570) 226-4620,41.47943,-75.18365
NEWFOUNDLAND AREA PUB LIBRARY,MAIN ST,NEWFOUNDLAND,PA,18445-0214,Wayne,(570) 676-4518,41.3066,-75.3426
NORTHERN WAYNE COMMUNITY LIB,BOX 274 ROUTE 370,LAKEWOOD,PA,18439-0274,Wayne,(570) 798-2444,41.8147,-75.3685
PLEASANT MOUNT PUBLIC LIBRARY,375 GREAT BEND TURNPIKE,PLEASANT MOUNT,PA,18453-9801,Wayne,(570) 448-2573,41.7342,-75.3907
WAYNE COUNTY PUBLIC LIBRARY,1406 MAIN ST,HONESDALE,PA,18431-2006,Wayne,(570) 253-1220,41.579506,-75.2596329
ADAMS MEMORIAL LIBRARY,1112 LIGONIER ST,LATROBE,PA,15650-1994,Westmoreland,(724) 539-1972,40.31509,-79.38317
APOLLO MEMORIAL LIBRARY,219 NORTH PENNSYLVANIA AVE,APOLLO,PA,15613-1334,Westmoreland,(724) 478-4214,40.584113,-79.566364
AVONMORE PUBLIC LIBRARY,619 Allegheny Ave.,Avonmore,PA,15618,Westmoreland,(724) 697-4828,40.528756,-79.462086
CALDWELL MEMORIAL LIBRARY,982 NORTH CHESTNUT EXTENSION,DERRY,PA,15627,Westmoreland,(724) 694-5765,40.338942,-79.30825
DELMONT PUBLIC LIBRARY,77 GREENSBURG ST,DELMONT,PA,15626-1443,Westmoreland,(724) 468-5329,40.40993,-79.57237
GREENSBURG-HEMPFIELD AREA LIB,237 SOUTH PENNSYLVANIA AVENUE,GREENSBURG,PA,15601-3086,Westmoreland,(724) 837-5620,40.30089,-79.54496
HYDE PARK PUBLIC LIBRARY,P.O. Box 162,Hyde Park,PA,15641,Westmoreland,(724) 845-1044,40.6278258,-79.5965851
JEANNETTE PUBLIC LIBRARY,500 MAGEE AVENUE,JEANNETTE,PA,15644-3416,Westmoreland,(724) 523-5702,40.3273,-79.6141
LIGONIER VALLEY LIBRARY,120 WEST MAIN ST,LIGONIER,PA,15658-1243,Westmoreland,(724) 238-6451,40.243168,-79.238163
LOWER BURRELL BRANCH LIBRARY,3052 WACHTER AVE,LOWER BURRELL,PA,15068,Westmoreland,(724) 339-1565,40.583849,-79.71269
MANOR PUBLIC LIBRARY,57 RACE ST,MANOR,PA,15665-0625,Westmoreland,(724) 864-6850,40.33438,-79.67001
MONESSEN PUBLIC LIBRARY,326 DONNER AVENUE,MONESSEN,PA,15062-1101,Westmoreland,(724) 684-4750,40.161069,-79.882179
MT PLEASANT FR PUB LIB ASSOC,120 S CHURCH ST,MOUNT PLEASANT,PA,15666-1879,Westmoreland,(724) 547-3850,40.14894,-79.54605
MURRYSVILLE COMMUNITY LIBRARY,4130 SARDIS RD,MURRYSVILLE,PA,15668-1120,Westmoreland,(724) 327-1102,40.45828,-79.66478
NEW ALEXANDRIA PUBLIC LIBRARY,P.O. Box 405,New Alexandria,PA,15670,Westmoreland,(724) 668-7747,40.3361095,-79.5096028
NEW FLORENCE COMMUNITY LIBRARY,122 LIGONIER STREET,NEW FLORENCE,PA,15944-1118,Westmoreland,(724) 235-2249,40.37931,-79.07535
NORWIN PUB LIB ASSOC,100 CARUTHERS LANE,IRWIN,PA,15642-3553,Westmoreland,(724) 863-4700,40.32174,-79.69869
PENN AREA LIBRARY,2001 MUNICIPAL COURT,HARRISON CITY,PA,15636-0499,Westmoreland,(724) 744-4414,40.35714,-79.64968
PEOPLES LIBRARY,880 BARNES ST,NEW KENSINGTON,PA,15068-6205,Westmoreland,(724) 339-1021,40.56521,-79.764597
SALEM TOWNSHIP PUBLIC LIBRARY,Slickville Civic Center,Slickville,PA,15684,Westmoreland,(724) 468-4492,40.4618573,-79.5205452
SCOTTDALE PUBLIC LIBRARY,235 PITTSBURGH ST,SCOTTDALE,PA,15683-1734,Westmoreland,(724) 887-6140,40.101512,-79.589044
SEWICKLEY TOWNSHIP PUBLIC LIBRARY,201 HIGHLAND AVENUE,HERMINIE,PA,15637-1311,Westmoreland,(724) 446-9940,40.26139,-79.71624
SMITHTON PUBLIC LIBRARY,P.O. Box 382,Smithton,PA,15479,Westmoreland,(724) 872-0701,40.186985,-79.7075609
TRAFFORD COMMUNITY PUBLIC LIB,416 BRINTON AVENUE,TRAFFORD,PA,15085-9730,Westmoreland,(412) 372-5115,40.384797,-79.760957
UNITY BRANCH,SHOP N SAVE,LATROBE,PA,15650,Westmoreland,(724) 532-1840,40.2834,-79.4033
VANDERGRIFT PUB LIBRARY ASSOC,128C WASHINGTON ST,VANDERGRIFT,PA,15690-1289,Westmoreland,(724) 568-2212,40.6397,-79.5445
WEST NEWTON PUBLIC LIBRARY,124 North Water St.,West Newton,PA,15089,Westmoreland,(724) 972-3229 ,40.21119,-79.76711
WESTMORELAND COUNTY FEDERATED LIBRARY SYSTEM,226 Donohoe Rd Ste 202,Greensburg,PA,15601-7470,Westmoreland,(724) 420-5638,40.309841,-79.498681
YOUNGWOOD AREA PUBLIC LIBRARY,17 SOUTH SIXTH STREET,YOUNGWOOD,PA,15697-1278,Westmoreland,(724) 925-9350,40.24053,-79.580687
FACTORYVILLE PUBLIC LIBRARY,163 COLLEGE AVENUE,FACTORYVILLE,PA,18419-0238,Wyoming,(570) 945-3788,41.56773,-75.78695
FRANCES E. KENNARD PUBLIC LIBRARY ASSOCIATION,AUBURN and CANAL STREETS,MESHOPPEN,PA,18630-0039,Wyoming,(570) 833-5060,41.6499,-76.0091
LACEYVILLE PUBLIC LIBRARY,WEST MAIN ST.,LACEYVILLE,PA,18623-0068,Wyoming,(570) 869-1958,41.6947,-76.1281
MEHOOPANY AREA LIBRARY,PO Box 202,Mehoopany,PA,18629,Wyoming,(570) 833-2818,41.3390514,-75.804798
SCHENCK MEMORIAL LIBRARY,RR 1 Box 194,Noxen,PA,18636,Wyoming,(570) 298-2211,41.425773,-76.0611968
TUNKHANNOCK PUBLIC LIBRARY,220 W TIOGA ST,TUNKHANNOCK,PA,18657-6611,Wyoming,(570) 836-1677,41.54211,-75.95807
A HUFNAGEL PUBLIC LIBRARY OF GLEN ROCK,32 MAIN STREET,GLEN ROCK,PA,17327-1112,York,(717) 235-1127,39.7936478,-76.7314426
ANNIE E STERLINE LIBRARY,308 Market St,Lewisberry,PA,17339,York,(717) 9321-921,40.1366885,-76.8595439
COLLINSVILLE COMMUNITY LIBRARY,2632 Delta Road,BROGUE,PA,17309-0015,York,(717) 927-9014,39.8814,-76.4755
DILLSBURG AREA PUBLIC LIBRARY,17 SOUTH BALTIMORE STREET,DILLSBURG,PA,17019-1228,York,(717) 432-5613,40.1106,-77.0355
DOVER AREA COMMUNITY LIBRARY,3700 DAVIDSBURG RD,DOVER,PA,17315-4664,York,(717) 292-6814,39.988034,-76.952338
GLATFELTER MEMORIAL LIBRARY,101 GLENVIEW RD,SPRING GROVE,PA,17362-1503,York,(717) 225-3220,39.8876446,-76.8618713
GUTHRIE MEMORIAL LIBRARY - HANOVER'S PUBLIC LIBRARY,261 N. FRANKLIN STREET,HANOVER,PA,17331-2283,York,(717) 632-5183,39.80245,-76.98811
KALTREIDER MEMORIAL LIBRARY,147 S CHARLES ST,RED LION,PA,17356-2107,York,(717) 244-2032,39.898353,-76.606048
KREUTZ CREEK VALLEY LIBRARY CENTER,66 WALNUT SPRINGS RD,YORK,PA,17406-9516,York,(717) 252-4080,40.014272,-76.583387
MARTIN MEMORIAL LIBRARY,159 EAST MARKET ST.,YORK,PA,17401-1269,York,(717) 846-5300,39.9637418,-76.7241589
MASON DIXON PUBLIC LIBRARY,250 BAILEY DRIVE,STEWARTSTOWN,PA,17363-8299,York,(717) 993-2404,39.7708,-76.5918
PAUL SMITH LIBRARY OF SOUTHERN YORK COUNTY,80 CONSTITUTION AVE,SHREWSBURY,PA,17361-0239,York,(717) 235-4313,39.75342,-76.67879
RED LAND COMMUNITY LIBRARY,48 ROBIN HOOD DR,ETTERS,PA,17319,York,(717) 938-5599,40.1451,-76.7914
VILLAGE LIBRARY,35 N. Main St.,JACOBUS,PA,17407-1249,York,(717) 428-1034,39.8833,-76.7196
YORK CO LIB SYSTEM,159 E Market St,York,PA,17401-1269,York,(717) 846-5300 Ext:269,39.964166,-76.72424
YORK COUNTY LIBRARY SYSTEM,118 PLEASANT ACRES ROAD,YORK,PA,17402-9004,York,(717) 840-7435,39.988775,-76.648009
MARGARET R. GRUNDY MEMORIAL LIBRARY,680 RADCLIFFE ST,BRISTOL,PA,19007,,(215) 788-7891,40.0979328,-74.8499299